Store,Address,City,State,Zip Code,Phone
1636,3900 S BROADWAY,MINOT,ND,58701-7534,(701) 838-2176
3875,1625 COMMERCE DR,WAHPETON,ND,58075-3168,(701) 642-9086
1565,4001 2ND AVE W,WILLISTON,ND,58801-2603,(701) 572-8550
2784,3620 N 6TH ST,BEATRICE,NE,68310-1141,(402) 228-1244
2847,10504 S 15TH ST,BELLEVUE,NE,68123-4084,(402) 292-0156
3154,2109 TOWNE CENTER DR,BELLEVUE,NE,68123-0000,(402) 686-2040
4568,1882 HOLLY ST,BLAIR,NE,68008-6309,(402) 533-8222
2579,510 LINDEN ST,CHADRON,NE,69337-6989,(308) 432-6999
774,818 E 23RD ST,COLUMBUS,NE,68601-3866,(402) 564-1668
4322,1800 E 29TH ST,CRETE,NE,68333-3074,(402) 826-1002
418,2831 HIGHWAY 15,FAIRBURY,NE,68352-1008,(402) 729-3394
776,3010 E 23RD ST,FREMONT,NE,68025-2479,(402) 727-0414
1326,2250 N DIERS AVE,GRAND ISLAND,NE,68803-1258,(308) 381-0333
3395,3501 S LOCUST ST,GRAND ISLAND,NE,68801-8853,(308) 381-4970
4600,11350 WICKERSHAM BLVD,GRETNA,NE,68028-6979,(402) 881-3530
1460,3803 OSBORNE DR W,HASTINGS,NE,68901-9139,(402) 462-6000
598,5411 2ND AVE,KEARNEY,NE,68847-2435,(308) 234-8448
3173,9460 GILES RD,LA VISTA,NE,68128-3064,(402) 513-4207
637,200 FRONTIER ST,LEXINGTON,NE,68850-5677,(308) 324-7427
1943,4700 N 27TH ST,LINCOLN,NE,68521-1190,(402) 438-4377
2432,2500 JAMIE LN,LINCOLN,NE,68512-9496,(402) 975-6171
3278,8700 ANDERMATT DR,LINCOLN,NE,68526-9653,(402) 484-6166
3823,3400 N 85TH ST,LINCOLN,NE,68507-9435,(402) 466-0447
790,1902 W B ST,MCCOOK,NE,69001-3579,(308) 345-1800
4209,2101 S 11TH ST,NEBRASKA CITY,NE,68410-3481,(402) 874-9080
645,2400 W PASEWALK AVE,NORFOLK,NE,68701-4608,(402) 371-5452
1585,1401 S DEWEY ST,NORTH PLATTE,NE,69101-7622,(308) 532-5529
7129,201 PONY EXPRESS LN,OGALLALA,NE,69153-3101,(308) 284-0143
1637,6304 N 99TH ST,OMAHA,NE,68134-1528,(402) 492-9344
1671,8525 S. 71ST ST. PLAZA,OMAHA,NE,68157-0000,(402) 597-8977
3151,5018 AMES AVE,OMAHA,NE,68104-2323,(402) 970-9301
3152,2451 NORTH 90TH STREET,OMAHA,NE,68134-0000,(402) 513-4030
3153,6710 S 167TH ST,OMAHA,NE,68135-5421,(402) 609-5703
3172,5051 L ST,OMAHA,NE,68117-1328,(402) 541-0820
3267,18201 WRIGHT ST,OMAHA,NE,68130-2875,(402) 330-4400
4138,13105 BIRCH DR,OMAHA,NE,68164-5222,(402) 686-2055
4139,360 NORTH SADDLECREEK ROAD,OMAHA,NE,68131-0000,(402) 970-6491
4358,1606 S 72ND ST,OMAHA,NE,68124-1600,(402) 393-9560
5141,16960 W MAPLE RD,OMAHA,NE,68116-2237,(402) 289-9238
5361,12850 L ST,OMAHA,NE,68137-2078,(402) 697-1054
867,3322 AVENUE I,SCOTTSBLUFF,NE,69361-4589,(308) 632-2666
885,1326 280TH,SEWARD,NE,68434-7541,(402) 643-6631
5170,3001 SILVERBERG DR,SIDNEY,NE,69162-3033,(308) 254-9138
1332,1601 CORNHUSKER DR,SOUTH SIOUX CITY,NE,68776-3924,(402) 494-8858
350,101 E DAVID DR,YORK,NE,68467-9459,(402) 362-3366
1796,85 STATE ROUTE 101A,AMHERST,NH,03031-2216,(603) 672-3421
1975,14 BOWEN ST,CLAREMONT,NH,03743-2329,(603) 542-2703
2055,344 LOUDON RD,CONCORD,NH,03301-6095,(603) 226-9312
1753,11 ASHLEIGH DRIVE,DERRY,NH,03038-3054,(603) 434-3589
3535,35 FRESH RIVER RD,EPPING,NH,03042-2225,(603) 679-5919
2639,1458 LAKE SHORE RD,GILFORD,NH,03249-2221,(603) 528-8011
2634,561 MAIN ST,GORHAM,NH,03581-4901,(603) 752-4621
1907,724 BRATTLEBORO RD,HINSDALE,NH,03451-2359,(603) 336-5538
1698,3 COMMERCE DR,HOOKSETT,NH,03106-2528,(603) 644-8144
1785,254 LOWELL RD,HUDSON,NH,03051-4913,(603) 598-4226
3549,350 WINCHESTER ST,KEENE,NH,03431-3936,(603) 357-7200
2681,615 MEADOW ST,LITTLETON,NH,03561-3624,(603) 444-6300
2399,725 GOLD ST,MANCHESTER,NH,03103-4008,(603) 621-9666
2398,2200 WOODBURY AVE,NEWINGTON,NH,03801-2101,(603) 430-9985
2140,46 N SOUTH RD,NORTH CONWAY,NH,03860-5122,(603) 356-0130
1930,58 PLAISTOW RD,PLAISTOW,NH,03865-2831,(603) 382-2839
2758,683 TENNEY MOUNTAIN HWY,PLYMOUTH,NH,03264-3161,(603) 536-5352
2130,2460 LAFAYETTE RD,PORTSMOUTH,NH,03801-5618,(603) 433-6008
2057,750 US ROUTE 202,RINDGE,NH,03461-5615,(603) 899-6882
2330,116 FARMINGTON RD,ROCHESTER,NH,03867-4352,(603) 332-4300
2142,326 N BROADWAY,SALEM,NH,03079-2122,(603) 894-5642
1762,700 LAFAYETTE RD,SEABROOK,NH,03874-6202,(603) 474-2037
1749,59 WALTONS WAY,SOMERSWORTH,NH,03878-1044,(603) 692-6346
2369,33 SHERWOOD DRIVE,TILTON,NH,03276-5783,(603) 286-7673
2138,285 PLAINFIELD RD,WEST LEBANON,NH,03784-2029,(603) 298-5014
4389,4901 DARTMOUTH COLLEGE HWY,WOODSVILLE,NH,03785-1412,(603) 747-8250
5047,130 BLACK HORSE PIKE,AUDUBON,NJ,08106-1960,(856) 310-1470
5867,500 BAYONNE CROSSING WAY,BAYONNE,NJ,07002-5305,(201) 620-6137
5077,300 WOOTTON ST,BOONTON,NJ,07005-1925,(973) 299-3943
1977,1872 ROUTE 88,BRICK,NJ,08724-3535,(732) 840-7772
5384,1130 HIGHWAY 77,BRIDGETON,NJ,08302-5988,(856) 453-0418
2040,2106 MOUNT HOLLY RD,BURLINGTON,NJ,08016-4158,(609) 386-8400
3598,235 RIDGEDALE AVE,CEDAR KNOLLS,NJ,07927-2105,(973) 889-8646
5340,500 ROUTE 38,CHERRY HILL,NJ,08002-2954,(856) 665-5430
2871,2501 ROUTE 130 S,CINNAMINSON,NJ,08077-3075,(856) 303-2119
2582,ROUTE 513 AND I78,CLINTON,NJ,08809-0000,(908) 730-8665
3422,2000 CLEMENTS BRIDGE RD STE 100,DEPTFORD,NJ,08096-2011,(856) 384-3211
3078,290 STATE ROUTE 18,EAST BRUNSWICK,NJ,08816-1995,(732) 387-1059
3266,839 US HIGHWAY 130,EAST WINDSOR,NJ,08520-2907,(609) 443-6159
5201,2220 STATE ROUTE 27,EDISON,NJ,08817-3314,(732) 650-1297
3212,6801 BLACK HORSE PIKE,EGG HBR TWP,NJ,08234-4120,(609) 415-6353
3291,40 INTERNATIONAL DR S,FLANDERS,NJ,07836-4106,(973) 347-7400
2294,152 ROUTE 31 NORTH,FLEMINGTON,NJ,08822-5734,(908) 788-6769
2090,230 STATE HIGHWAY,FRANKLIN,NJ,07416-0000,(973) 209-4242
3236,326 W MAIN ST,FREEHOLD,NJ,07728-2524,(732) 780-3048
5752,174 PASSAIC ST,GARFIELD,NJ,07026-1358,(973) 330-3550
2503,1885 STATE ROUTE 57 STE 100,HACKETTSTOWN,NJ,07840-3477,(908) 979-9342
2518,700 MARKETPLACE BLVD,HAMILTON,NJ,08691-2115,(609) 585-1463
5012,1750 NOTTINGHAM WAY,HAMILTON,NJ,08619-3551,(609) 438-4093
2254,55 S WHITE HORSE PIKE,HAMMONTON,NJ,08037-1872,(609) 567-2700
2195,4900 US HIGHWAY 9,HOWELL,NJ,07731-3724,(732) 886-9100
5447,150 HARRISON AVE,KEARNY,NJ,07032-5950,(201) 955-0280
5414,580 US HIGHWAY 9,LANOKA HARBOR,NJ,08734-2210,(609) 242-4231
3912,461 RT 10 SUITE A100,LEDGEWOOD,NJ,07852-0000,(973) 598-4088
3469,1050 W EDGAR RD,LINDEN,NJ,07036-6422,(908) 474-9055
3830,631 RT. 9 SOUTH,LITTLE EGG HARBOR,NJ,08087-4031,(609) 296-2430
2841,1740 ROUTE 38,LUMBERTON,NJ,08048-2257,(609) 702-9200
1921,525 ROUTE 72 W,MANAHAWKIN,NJ,08050-2821,(609) 978-8300
2651,PO BOX 209,MANVILLE,NJ,08835-0209,(908) 575-8997
1869,150 E ROUTE 70,MARLTON,NJ,08053-1856,(856) 983-2100
2108,4620 BLACK HORSE PIKE,MAYS LANDING,NJ,08330-3213,(609) 625-8200
2109,2291 N 2ND ST,MILLVILLE,NJ,08332-1305,(856) 825-4200
5944,934 ROUTE 73,MOUNT LAUREL,NJ,08054-1124,(856) 372-6130
5142,3575 STATE ROUTE 66,NEPTUNE,NJ,07753-2602,(732) 922-8084
2604,26 HAMPTON HOUSE RD,NEWTON,NJ,07860-1409,(973) 300-1859
3795,2100 88TH ST,NORTH BERGEN,NJ,07047-4709,(201) 758-2810
2003,979 ROUTE 1,NORTH BRUNSWICK,NJ,08902-2712,(732) 545-4499
2825,1126 US HIGHWAY 9,OLD BRIDGE,NJ,08857-2860,(732) 525-8030
4153,2825 STATE ROUTE 18,OLD BRIDGE,NJ,08857-3798,(732) 955-0139
2041,709 S BROADWAY,PENNSVILLE,NJ,08070-9655,(856) 935-8200
2497,1300 US HIGHWAY 22,PHILLIPSBURG,NJ,08865-4108,(908) 454-3622
2633,1303 CENTENNIAL AVE,PISCATAWAY,NJ,08854-4321,(732) 562-1771
3337,3159 ROUTE 9 SOUTH,RIO GRANDE,NJ,08242-1012,(609) 465-2204
3443,48 STATE RT 23,RIVERDALE,NJ,07457-1602,(973) 835-5812
5178,220 ENTERPRISE DR,ROCKAWAY,NJ,07866-2157,(973) 361-6089
3562,189 US HIGHWAY 46,SADDLE BROOK,NJ,07663-6215,(201) 226-0575
3520,400 PARK PL,SECAUCUS,NJ,07094-3654,(201) 325-9280
4456,1 COOPERTOWN BLVD,SOMERDALE,NJ,08083-1433,(856) 545-9052
3159,1 TETERBORO LANDING DR,TETERBORO,NJ,07608-1120,(201) 375-4002
1844,950 ROUTE 37 W,TOMS RIVER,NJ,08755-5018,(732) 349-6000
1742,3501 ROUTE 42,TURNERSVILLE,NJ,08012-1752,(856) 629-3888
3292,900 SPRINGFIELD RD,UNION,NJ,07083-8617,(908) 624-0644
3339,1070 W LANDIS AVE,VINELAND,NJ,08360-3422,(856) 205-9940
5111,1501 US HIGHWAY 22,WATCHUNG,NJ,07069-6507,(908) 756-1925
1807,265 N ROUTE 73,WEST BERLIN,NJ,08091-2500,(856) 753-8787
3774,ROUTE 38,WILLIAMSTOWN,NJ,08094-0000,(856) 629-2054
5281,360 US HIGHWAY 9 ROUTE N,WOODBRIDGE,NJ,07095-1004,(732) 826-4652
5476,820 COOPER ST,WOODBURY,NJ,08096-2598,(856) 686-0133
1306,233 S NEW YORK AVE,ALAMOGORDO,NM,88310-6531,(575) 434-5870
5726,2401 INDIAN WELLS ROAD,ALAMOGORDO,NM,88310-0000,(575) 812-7045
824,8000 ACADEMY RD NE,ALBUQUERQUE,NM,87111-1159,(505) 856-5274
835,400 EUBANK BLVD NE,ALBUQUERQUE,NM,87123-2758,(505) 293-8878
850,2701 CARLISLE BLVD NE,ALBUQUERQUE,NM,87110-2830,(505) 884-6650
1397,10224 COORS BYP NW,ALBUQUERQUE,NM,87114-4398,(505) 897-1228
2451,4700 CUTLER AVE NE,ALBUQUERQUE,NM,87110-4096,(505) 346-0702
2924,2550 COORS BLDV. NW,ALBUQUERQUE,NM,87120-2123,(505) 352-1870
3317,8511 GOLF COURSE RD NW,ALBUQUERQUE,NM,87114-4896,(505) 792-3676
3385,9600 SAGE RD SW,ALBUQUERQUE,NM,87121-6803,(505) 831-3618
3512,11018 MONTGOMERY BLVD NE,ALBUQUERQUE,NM,87111-3962,(505) 600-4183
4676,1820 UNSER BLVD NW,ALBUQUERQUE,NM,87120-3933,(505) 600-4293
5430,3500 COORS BLVD SW,ALBUQUERQUE,NM,87121-5274,(505) 877-2254
5491,2266 WYOMING BLVD NE,ALBUQUERQUE,NM,87112-2620,(505) 323-4131
5675,11001 MENAUL BLVD NE,ALBUQUERQUE,NM,87112-2432,(505) 200-3435
3427,604 N 26TH ST,ARTESIA,NM,88210-3723,(575) 746-2184
1414,1 I 25 BYP,BELEN,NM,87002-8170,(505) 864-9114
3731,460 NM HIGHWAY 528,BERNALILLO,NM,87004-6633,(505) 771-4867
868,2401 S CANAL ST,CARLSBAD,NM,88220-6523,(575) 885-0727
821,3728 N PRINCE ST,CLOVIS,NM,88101-9744,(575) 769-2261
5166,1021 E PINE ST,DEMING,NM,88030-7009,(575) 546-6045
4201,66 STATE ROAD 344,EDGEWOOD,NM,87015-6849,(505) 286-3043
2656,PO BOX 3007,FAIRVIEW,NM,87533-3007,(505) 747-0414
826,4600 E MAIN ST,FARMINGTON,NM,87402-8663,(505) 326-1100
3428,1400 W MAIN ST,FARMINGTON,NM,87401-3836,(505) 327-1243
906,1650 W MALONEY AVE,GALLUP,NM,87301-3305,(505) 722-2296
2652,1000 ROBERT RD,GRANTS,NM,87020-4012,(505) 285-3350
549,3800 N LOVINGTON HWY,HOBBS,NM,88240-1033,(575) 492-0120
806,571 WALTON BLVD,LAS CRUCES,NM,88001-8449,(575) 525-1222
4601,NEC HWY 7 & ROADRUNNER,LAS CRUCES,NM,88011-0000,(575) 680-3772
5155,1550 S VALLEY DR,LAS CRUCES,NM,88005-3110,(575) 523-4924
5782,150 N SONOMA RANCH BLVD,LAS CRUCES,NM,88011-1608,(575) 323-6098
1380,2609 7TH ST,LAS VEGAS,NM,87701-4863,(505) 425-5242
3596,2250 MAIN ST NW,LOS LUNAS,NM,87031-4807,(505) 565-4611
2653,1604 E SPRUCE ST,PORTALES,NM,88130-9489,(575) 359-3420
3517,1115 NM HIGHWAY 528 SE,RIO RANCHO,NM,87124-0000,(505) 600-4052
3732,901 UNSER BLVD SE,RIO RANCHO,NM,87124-6365,(505) 962-9227
611,4500 N MAIN ST STE A,ROSWELL,NM,88201-0305,(575) 623-2062
851,26180 US HIGHWAY 70,RUIDOSO DOWNS,NM,88346-9596,(575) 378-8050
829,3251 CERRILLOS RD,SANTA FE,NM,87507-2924,(505) 474-4727
3423,5701 HERRERA DR,SANTA FE,NM,87507-2677,(505) 424-9304
1357,2501 HIGHWAY 180 E,SILVER CITY,NM,88061-7791,(575) 538-2222
5492,700 6TH ST N,SOCORRO,NM,87801-4242,(575) 838-1415
873,926 PASEO DEL PUEBLO SUR,TAOS,NM,87571-5966,(575) 758-1136
4341,2001 HR ASHBAUGH DR,TRUTH OR CONSEQUENCES,NM,87901-3715,(575) 894-0343
1648,3770 US HIGHWAY 395 S,CARSON CITY,NV,89705-6898,(775) 267-2158
3408,3200 MARKET ST,CARSON CITY,NV,89706-7984,(775) 883-6415
2402,2944 MOUNTAIN CITY HWY,ELKO,NV,89801-4495,(775) 778-6778
2453,2333 RENO HWY,FALLON,NV,89406-6385,(775) 428-1700
4370,1550 NEWLANDS DR E,FERNLEY,NV,89408-8910,(775) 575-4832
5864,1511 GRANT ST,GARDNERVILLE,NV,89410-7824,(775) 552-3436
2050,300 E LAKE MEAD PKWY,HENDERSON,NV,89015-5576,(702) 564-3665
2838,540 MARKS ST,HENDERSON,NV,89014-6654,(702) 547-0551
3354,1401 AMERICAN PACIFIC DR,HENDERSON,NV,89074-7401,(702) 564-9444
1559,201 N NELLIS BLVD,LAS VEGAS,NV,89110-5321,(702) 452-9998
1560,6005 S EASTERN AVE,LAS VEGAS,NV,89119-3135,(702) 451-8900
1584,3615 S RAINBOW BLVD,LAS VEGAS,NV,89103-1057,(702) 367-9999
1838,3041 N RAINBOW BLVD,LAS VEGAS,NV,89108-4577,(702) 656-0199
2483,6973 BLUE DIAMOND RD,LAS VEGAS,NV,89178-9213,(702) 408-3595
2593,2310 E SERENE AVE,LAS VEGAS,NV,89123-3248,(702) 270-7831
2884,8060 W TROPICAL PKWY,LAS VEGAS,NV,89149-4528,(702) 839-3620
3350,5198 BOULDER HWY,LAS VEGAS,NV,89122-6002,(702) 434-5595
3351,6464 N DECATUR BLVD,LAS VEGAS,NV,89131-2959,(702) 515-7050
3355,1400 S LAMB BLVD,LAS VEGAS,NV,89104-5416,(702) 431-1180
3356,7445 S EASTERN AVE,LAS VEGAS,NV,89123-1538,(702) 614-8122
3473,4505 W CHARLESTON BLVD,LAS VEGAS,NV,89102-1501,(702) 258-4540
3655,10440 W CHEYENNE AVE,LAS VEGAS,NV,89129-8712,(702) 233-9520
3788,6310 W CHARLESTON BLVD,LAS VEGAS,NV,89146-1128,(702) 870-1220
4356,7200 ARROYO CROSSING PKWY,LAS VEGAS,NV,89113-4058,(702) 270-6003
4557,3075 E TROPICANA AVE,LAS VEGAS,NV,89121-7311,(702) 433-4267
5070,5200 S FORT APACHE RD,LAS VEGAS,NV,89148-1722,(702) 367-4001
5258,5850 W CRAIG RD,LAS VEGAS,NV,89130-2558,(702) 395-1222
5259,6151 W LAKE MEAD BLVD,LAS VEGAS,NV,89108-2660,(702) 631-1962
5269,490 E SILVERADO RANCH BLVD,LAS VEGAS,NV,89183-6290,(702) 263-7550
5423,6570 E LAKE MEAD BLVD,LAS VEGAS,NV,89156-7044,(702) 437-3590
3847,1120 W PIONEER BLVD,MESQUITE,NV,89027-8864,(702) 346-0208
2592,1807 W CRAIG RD,NORTH LAS VEGAS,NV,89032-0217,(702) 633-6521
3728,3950 W LAKE MEAD BLVD,NORTH LAS VEGAS,NV,89032-4895,(702) 631-0421
4339,5940 LOSEE RD,NORTH LAS VEGAS,NV,89081-6591,(702) 639-1202
5306,5545 SIMMONS ST,NORTH LAS VEGAS,NV,89031-9005,(702) 646-5759
5101,300 S HIGHWAY 160,PAHRUMP,NV,89048-2132,(775) 537-1400
2106,2425 E 2ND ST,RENO,NV,89502-1218,(775) 359-8200
2189,4855 KIETZKE LN,RENO,NV,89509-6549,(775) 829-8088
3254,5260 W 7TH ST,RENO,NV,89523-2332,(775) 624-2000
3277,155 DAMONTE RANCH PKWY,RENO,NV,89521-2990,(775) 853-6400
4239,250 VISTA KNOLL PKWY,RENO,NV,89506-5594,(775) 332-0308
3729,5065 PYRAMID WAY,SPARKS,NV,89436-7703,(775) 425-9300
2617,3010 POTATO RD,WINNEMUCCA,NV,89445-3665,(775) 625-3777
2152,141 WASHINGTON AVE EXTENSION,ALBANY,NY,12205-0000,(518) 869-4694
3607,13858 STATE ROUTE 31,ALBION,NY,14411-9362,(585) 589-0608
2210,3290 SHERIDAN DR,AMHERST,NY,14226-1422,(716) 691-0195
2146,101 SANFORD FARMS SHOPPING CTR,AMSTERDAM,NY,12010-7535,(518) 843-6890
1830,297 GRANT AVE,AUBURN,NY,13021-1407,(315) 255-0532
2088,4133 VETERANS MEMORIAL DR,BATAVIA,NY,14020-1253,(585) 345-1050
1993,6265 BROCKPORT SPENCERPORT RD,BROCKPORT,NY,14420-2605,(585) 637-6331
2581,5399 W GENESEE ST,CAMILLUS,NY,13031-2265,(315) 487-0121
1673,4238 RECREATION DR,CANANDAIGUA,NY,14424-2235,(585) 394-5300
2351,PO BOX 430,CATSKILL,NY,12414-0430,(518) 943-9423
2286,161 CENTEREACH MALL,CENTEREACH,NY,11720-2750,(631) 467-4825
2911,3018 EAST AVE,CENTRAL SQUARE,NY,13036-2615,(315) 668-0400
2586,2500 WALDEN AVE,CHEEKTOWAGA,NY,14225-4940,(716) 896-3669
5242,8064 BREWERETON ROAD,CICERO,NY,13039-9584,(315) 698-0130
2844,PO BOX 1547,CLIFTON PARK,NY,12065-0807,(518) 373-8457
2135,139 MERCHANT PL,COBLESKILL,NY,12043-5715,(518) 234-1090
5202,85 CROOKED HILL RD,COMMACK,NY,11725-5407,(631) 864-0806
1781,819 BENNIE RD,CORTLAND,NY,13045-8964,(607) 756-1776
1940,279 TROY RD,EAST GREENBUSH,NY,12144-9499,(518) 283-3055
2916,2465 HEMPSTEAD TPKE,EAST MEADOW,NY,11554-2028,(516) 579-3307
2915,3990 NESCONSET HWY,EAST SETAUKET,NY,11733-3334,(631) 474-3287
2166,6438 BASILE ROWE,EAST SYRACUSE,NY,13057-3900,(315) 434-9873
5497,25737 US ROUTE 11,EVANS MILLS,NY,13637-3221,(315) 629-2124
5295,965 BROADHOLLOW RD,FARMINGDALE,NY,11735-3906,(631) 752-8768
1810,26 W MERRITT BLVD,FISHKILL,NY,12524-2243,(845) 896-8192
1949,10401 BENNETT RD,FREDONIA,NY,14063-1402,(716) 679-3150
3332,1818 STATE ROUTE 3,FULTON,NY,13069-1565,(315) 598-1773
1966,4235 VETERAN DR,GENESEO,NY,14454-9433,(585) 243-4090
1731,990 STATE ROUTE 5 AND 20,GENEVA,NY,14456-9543,(315) 781-3253
3583,311 ROUTE 9W,GLENMONT,NY,12077-2909,(518) 432-6120
2874,200 DUTCH MEADOWS LN,GLENVILLE,NY,12302-3546,(518) 344-7035
1806,329 S KINGSBORO AVE EXT,GLOVERSVILLE,NY,12078-4611,(518) 725-2403
1610,100 ELMRIDGE CENTER DR,GREECE,NY,14626-3459,(585) 227-0720
5282,3800 DEWEY AVE,GREECE,NY,14616-2529,(585) 957-7382
2405,5360 SOUTHWESTERN BLVD,HAMBURG,NY,14075-3596,(716) 646-0682
2285,103 N CAROLINE ST,HERKIMER,NY,13350-1716,(315) 717-0023
2326,1000 STATE ROUTE 36,HORNELL,NY,14843-9323,(607) 324-7019
1976,1400 COUNTY RD 64,HORSEHEADS,NY,14845-2297,(607) 739-1714
2097,460 FAIRVIEW AVE,HUDSON,NY,12534-1018,(518) 822-0160
2917,1850 VETERANS HWY,ISLANDIA,NY,11749-1513,(631) 851-0468
5240,135 FAIRGROUNDS MEMORIAL PKWY,ITHACA,NY,14850-5362,(607) 277-4510
5732,2 GANNETT DR,JOHNSON CITY,NY,13790-2260,(607) 240-5040
2504,601 FRANK STOTTILE BLVD,KINGSTON,NY,12401-1550,(845) 336-4159
1973,350 E FAIRMOUNT AVE,LAKEWOOD,NY,14750-2134,(716) 763-0945
5027,4975 TRANSIT RD,LANCASTER,NY,14043-4617,(716) 206-3050
1997,579 TROY-SCHENECTADY ROAD,LATHAM,NY,12110,(518) 783-4086
4184,3335 HEMPSTEAD TPKE,LEVITTOWN,NY,11756-1310,(516) 490-0438
1831,8770 DELL CENTER DR,LIVERPOOL,NY,13090-8700,(315) 622-5401
2107,5735 SOUTH TRANSIT ROAD,LOCKPORT,NY,14094-5864,(716) 438-2404
5498,7155 E STATE ST,LOWVILLE,NY,13367-2412,(315) 376-7030
3842,425 STATE ROUTE 31,MACEDON,NY,14502-9108,(315) 986-1584
3334,3222 STATE ROUTE 11,MALONE,NY,12953-4709,(518) 483-5968
1946,43 STEPHENVILLE ST,MASSENA,NY,13662-2705,(315) 769-1072
2156,750 MIDDLE COUNTRY RD,MIDDLE ISLAND,NY,11953-2542,(631) 924-0081
1959,470 ROUTE 211 E,MIDDLETOWN,NY,10940-2245,(845) 342-0222
2531,3133 E MAIN ST,MOHEGAN LAKE,NY,10547-1521,(914) 526-1100
2637,288 LARKIN DR,MONROE,NY,10950-4911,(845) 783-3505
2547,41 ANAWANA LAKE RD,MONTICELLO,NY,12701-3206,(845) 796-7202
4570,7500 ROUTE 209,NAPANOCH,NY,12458-0000,(845) 647-2671
1677,4765 COMMERCIAL DR,NEW HARTFORD,NY,13413-6211,(315) 736-4932
1813,6788 STATE ROUTE 31 E,NEWARK,NY,14513-9232,(315) 331-5081
2104,1201 ROUTE 300,NEWBURGH,NY,12550-5005,(845) 567-6007
1909,1540 MILITARY RD,NIAGARA FALLS,NY,14304-4704,(716) 298-4484
4597,886 NIAGARA FALLS BLVD,NORTH TONAWANDA,NY,14120-2006,(716) 243-4138
2120,5396 STATE HIGHWAY 12,NORWICH,NY,13815-3716,(607) 334-5553
2092,3000 FORD STREET EXT,OGDENSBURG,NY,13669-4480,(315) 394-8990
2159,1869 PLAZA DR,OLEAN,NY,14760-1864,(716) 373-2781
2444,2024 GENESEE ST,ONEIDA,NY,13421-2680,(315) 361-1037
2262,5054 STATE HIGHWAY 23,ONEONTA,NY,13820-3506,(607) 431-9557
1926,341 STATE ROUTE 104,OSWEGO,NY,13126-2911,(315) 342-6210
2992,3217 SILVERBACK LN,PAINTED POST,NY,14870-8911,(607) 937-9627
1994,25 CONSUMER SQ,PLATTSBURGH,NY,12901-6508,(518) 561-0195
3329,7494 US HIGHWAY 11,POTSDAM,NY,13676-3577,(315) 268-6900
2116,891 ROUTE 9,QUEENSBURY,NY,12804-1744,(518) 793-0309
4403,24 QUAKER RIDGE BLVD,QUEENSBURY,NY,12804-1556,(518) 746-4155
2906,1890 OLD COUNTRY RD,RIVERHEAD,NY,11901-4453,(631) 369-1041
1619,1200 MARKETPLACE DR,ROCHESTER,NY,14623-6002,(585) 292-6000
2859,2150 CHILI AVE,ROCHESTER,NY,14624-3453,(585) 429-9640
3280,1490 HUDSON AVE,ROCHESTER,NY,14621-1701,(585) 266-2000
2234,5815 ROME TABERG RD,ROME,NY,13440-1759,(315) 338-7900
2056,16 OLD GICK RD,SARATOGA SPRINGS,NY,12866-9452,(518) 581-8035
2264,1320 ALTAMONT AVE,SCHENECTADY,NY,12303-2924,(518) 355-2596
2164,317 S CASCADE DR,SPRINGVILLE,NY,14141-9108,(716) 592-1460
2905,250 ROUTE 59,SUFFERN,NY,10901-5315,(845) 368-4705
2424,1134 WICKER ST,TICONDEROGA,NY,12883-3103,(518) 585-3060
2370,760 HOOSICK RD,TROY,NY,12180-6697,(518) 279-0685
2583,1123 JERUSALEM AVE,UNIONDALE,NY,11553-3004,(516) 505-1508
2093,710 HORATIO ST,UTICA,NY,13502-1461,(315) 738-1155
5293,77 GREEN ACRES RD,VALLEY STREAM,NY,11581-1008,(516) 887-0127
1835,2405 VESTAL PKWY E,VESTAL,NY,13850-2018,(607) 798-1011
2785,441 COMMERCE DR,VICTOR,NY,14564-9644,(585) 398-6038
2043,2348 ROUTE 19 N,WARSAW,NY,14569-9356,(585) 786-0700
1705,1860 N ROAD,WATERLOO,NY,13165-4175,(315) 539-2560
1871,20823 STATE ROUTE 3,WATERTOWN,NY,13601-5577,(315) 786-0145
3221,515 E 4TH ST,WATKINS GLEN,NY,14891-1218,(607) 535-3108
1744,1990 BRANDT POINT DRIVE,WEBSTER,NY,14580-1959,(585) 787-1370
3420,1220 OLD COUNTRY RD,WESTBURY,NY,11590-5624,(516) 794-7280
2355,5033 TRANSIT RD,WILLIAMSVILLE,NY,14221-4132,(716) 565-0250
8331,901 BOULEVARD EAST,YAPHANK,NY,11980-0000,(631) 729-4039
1911,2887 S ARLINGTON RD,AKRON,OH,44312-4715,(330) 645-9556
2541,2700 W STATE ST,ALLIANCE,OH,44601-5611,(330) 821-0026
3342,1815 E OHIO PIKE,AMELIA,OH,45102-2380,(513) 797-5700
1448,1996 E MAIN ST,ASHLAND,OH,44805-8944,(419) 281-9537
2359,3551 N RIDGE RD E,ASHTABULA,OH,44004-4313,(440) 998-4000
3486,929 E STATE ST,ATHENS,OH,45701-2117,(740) 594-3398
3250,7235 MARKET PLACE DR,AURORA,OH,44202-8758,(330) 562-0000
2063,6001 MAHONING AVE,AUSTINTOWN,OH,44515-2227,(330) 270-0001
5066,35901 CHESTER RD,AVON,OH,44011-1069,(440) 937-4750
2124,3360 PENTAGON BLVD,BEAVERCREEK,OH,45431-2199,(937) 426-8227
1264,2281 US HIGHWAY 68 S,BELLEFONTAINE,OH,43311-8904,(937) 592-4700
1913,131 W GYPSY LANE RD,BOWLING GREEN,OH,43402-4503,(419) 352-3776
2191,1215 S MAIN ST,BRYAN,OH,43506-2442,(419) 636-1535
2613,1875 E MANSFIELD ST,BUCYRUS,OH,44820-2075,(419) 562-8101
3262,61205 SOUTHGATE RD,CAMBRIDGE,OH,43725-8002,(740) 439-5743
5184,6674 WINCHESTER BLVD,CANAL WINCHESTER,OH,43110-2048,(614) 833-3930
5285,3200 ATLANTIC BLVD NE,CANTON,OH,44705-3933,(330) 489-9035
5410,4004 TUSCARAWAS ST W,CANTON,OH,44708-5503,(330) 479-9620
1433,1950 HAVEMANN RD,CELINA,OH,45822-9300,(419) 586-3777
3293,PO BOX 118,CHARDON,OH,44024-0118,(440) 286-2250
2400,85 RIVER TRCE,CHILLICOTHE,OH,45601-2686,(740) 774-4800
1443,4370 EASTGATE SQUARE DR,CINCINNATI,OH,45245-4502,(513) 753-3200
1521,8451 COLERAIN AVE,CINCINNATI,OH,45239-3926,(513) 245-9458
2250,4000 RED BANK RD,CINCINNATI,OH,45227-3416,(513) 351-9818
2447,2322 FERGUSON RD,CINCINNATI,OH,45238-3503,(513) 922-8881
3749,2801 CUNNINGHAM RD,CINCINNATI,OH,45241-3270,(513) 769-1124
4609,10240 COLERAIN AVE,CINCINNATI,OH,45251-4904,(513) 385-0083
1427,1470 S COURT ST,CIRCLEVILLE,OH,43113-2165,(740) 477-3678
2073,10000 BROOKPARK RD,CLEVELAND,OH,44130-1102,(216) 741-7340
4285,3400 STEELYARD DR,CLEVELAND,OH,44109-2386,(216) 661-2406
2098,3900 MORSE RD,COLUMBUS,OH,43219-3016,(614) 476-2070
2426,5200 WEST POINTE PLAZA,COLUMBUS,OH,43228-9126,(614) 876-7850
2666,3579 S HIGH ST,COLUMBUS,OH,43207-4008,(614) 409-0683
3812,2700 BETHEL RD,COLUMBUS,OH,43220-2217,(614) 326-0083
5185,1221 GEORGESVILLE RD,COLUMBUS,OH,43228-3327,(614) 275-9811
2197,2016 MILLENNIUM BLVD,CORTLAND,OH,44410-9173,(330) 372-1772
1937,23605 AIRPORT RD,COSHOCTON,OH,43812-9262,(740) 622-1278
1503,6244 WILMINGTON PIKE,DAYTON,OH,45459-7024,(937) 848-3188
1504,8800 KINGSRIDGE DR,DAYTON,OH,45458-1616,(937) 435-2222
3783,3465 YORK COMMONS BLVD,DAYTON,OH,45414-2675,(937) 454-6240
5385,1804 N CLINTON ST,DEFIANCE,OH,43512-8556,(419) 784-2390
1990,1760 COLUMBUS PIKE,DELAWARE,OH,43015-2726,(740) 363-9931
2471,5900 BRITTON PKWY,DUBLIN,OH,43016-1207,(614) 717-9660
2774,7730 SAWMILL RD,DUBLIN,OH,43016-9297,(614) 943-6503
1707,16280 DRESDEN AVE,EAST LIVERPOOL,OH,43920-9024,(330) 386-4002
1863,33752 VINE ST,EASTLAKE,OH,44095-5100,(440) 269-8827
5374,100A E WASHINGTON JACKSON RD,EATON,OH,45320-9729,(937) 456-1777
4255,1000 CHESTNUT COMMONS DR,ELYRIA,OH,44035-9602,(440) 365-0135
5409,7725 HOKE RD,ENGLEWOOD,OH,45315-9725,(937) 836-9405
1895,3750 W MARKET ST,FAIRLAWN,OH,44333-4804,(330) 668-1129
1718,2500 TIFFIN AVE,FINDLAY,OH,45840-9511,(419) 425-1300
3840,1161 TRENTON AVE,FINDLAY,OH,45840-1919,(419) 425-2186
3784,1275 E 2ND ST,FRANKLIN,OH,45005-1994,(937) 704-0568
1429,2052 N STATE ROUTE 53,FREMONT,OH,43420-8628,(419) 334-3190
2605,2145 EASTERN AVE,GALLIPOLIS,OH,45631-1873,(740) 441-0406
2035,1501 WAGNER AVENUE,GREENVILLE,OH,45331-2763,(937) 547-9644
5466,1693 STRINGTOWN RD,GROVE CITY,OH,43123-8265,(614) 539-8560
2441,1505 MAIN ST,HAMILTON,OH,45013-1079,(513) 737-0564
3502,3201 PRINCETON RD,HAMILTON,OH,45011-5332,(513) 869-8400
1594,911 HEBRON RD,HEATH,OH,43056-1182,(740) 522-5841
3515,540 HARRY SAUNER RD,HILLSBORO,OH,45133-8298,(937) 840-0208
3445,1355 S MCCORD RD,HOLLAND,OH,43528-9141,(419) 867-0155
1495,7680 BRANDT PIKE,HUBER HEIGHTS,OH,45424-2340,(937) 237-1988
1519,100 WALMART DR,JACKSON,OH,45640-8692,(740) 288-2700
3722,250 TALLMADGE RD,KENT,OH,44240-7204,(330) 673-3142
5355,1241 E COLUMBUS ST,KENTON,OH,43326-1750,(419) 675-1156
3792,2687 N MEMORIAL DR,LANCASTER,OH,43130-1670,(740) 687-0323
1407,1530 WALMART DR,LEBANON,OH,45036-7342,(513) 932-4236
2725,8659 COLUMBUS PIKE,LEWIS CENTER,OH,43035-9699,(740) 657-1341
1330,2450 ALLENTOWN RD,LIMA,OH,45805-1712,(419) 224-3168
3206,2400 HARDING HWY,LIMA,OH,45804-3428,(419) 222-4466
3282,12910 STATE ROUTE 664 S,LOGAN,OH,43138-8564,(740) 380-1472
5203,375 LAFAYETTE ST,LONDON,OH,43140-9326,(740) 852-1507
1839,4380 LEAVITT RD,LORAIN,OH,44053-2370,(440) 324-4104
1927,8160 MACEDONIA COMMONS BLVD,MACEDONIA,OH,44056-1843,(330) 468-0200
3608,6067 N RIDGE RD,MADISON,OH,44057-2441,(440) 417-0010
5471,2485 POSSUM RUN RD,MANSFIELD,OH,44903-9447,(419) 756-2850
2078,804 PIKE ST,MARIETTA,OH,45750-3503,(740) 376-9030
1750,1546 MARION-MT. GILEAD ROAD,MARION,OH,43302-5820,(740) 389-3404
1595,555 COLEMANS CROSSING BLVD,MARYSVILLE,OH,43040-7042,(937) 644-2800
1441,5303 BOWEN DR,MASON,OH,45040-6732,(513) 583-9330
2914,1 MASSILLON MARKETPLACE DR SW,MASSILLON,OH,44646-2018,(330) 834-0500
1894,4141 PEARL RD,MEDINA,OH,44256-7649,(330) 723-1122
1857,9303 MENTOR AVE,MENTOR,OH,44060-6413,(440) 974-3300
5387,15050 S SPRINGDALE AVE,MIDDLEFIELD,OH,44062-9211,(440) 632-0383
3571,2900 TOWNE BLVD,MIDDLETOWN,OH,45044-6200,(513) 423-6785
5499,201 CHAMBER DR,MILFORD,OH,45150-2516,(513) 248-0067
1724,PO BOX 247,MILLERSBURG,OH,44654-0247,(330) 674-2888
5104,1701 W DOROTHY LN,MORAINE,OH,45439-1838,(937) 643-2124
2149,1575 COSHOCTON AVE,MOUNT VERNON,OH,43050-1476,(740) 392-3800
1416,1815 SCOTT ST,NAPOLEON,OH,43545-1086,(419) 599-1973
1564,4490 GALLIA ST,NEW BOSTON,OH,45662-5566,(740) 456-8257
2115,231 BLUEBELL DR SW,NEW PHILADELPHIA,OH,44663-9601,(330) 339-3991
3580,1315 N 21ST ST,NEWARK,OH,43055-3090,(740) 364-9090
2361,4572 MEGA ST NW,NORTH CANTON,OH,44720-7098,(330) 305-9527
2316,24801 BROOKPARK RD,NORTH OLMSTED,OH,44070-3487,(440) 979-9234
1986,340 WESTWIND DR,NORWALK,OH,44857-9104,(419) 663-2212
5309,46440 US ROUTE 20,OBERLIN,OH,44074-9475,(440) 774-6720
1539,359 N LEXINGTON SPRINGMILL RD,ONTARIO,OH,44906-3808,(419) 529-2950
5029,3721 NAVARRE AVE,OREGON,OH,43616-3433,(419) 698-2034
2542,1720 N PERRY ST,OTTAWA,OH,45875-1153,(419) 523-6995
2275,5720 COLLEGE CORNER PIKE,OXFORD,OH,45056-1178,(513) 524-4122
5082,8303 W RIDGEWOOD DR,PARMA,OH,44129-5524,(440) 884-5641
4479,10392 FREMONT PIKE,PERRYSBURG,OH,43551-3335,(419) 874-0291
3765,1300 E ASH ST,PIQUA,OH,45356-4100,(937) 615-9924
2211,1300 DORAL DR,POLAND,OH,44514-1900,(330) 758-0011
1445,2826 EAST HARBOR RD,PORT CLINTON,OH,43452-2611,(419) 732-3369
2506,2600 STATE ROUTE 59,RAVENNA,OH,44266-1646,(330) 677-0338
2726,2793 TAYLOR ROAD EXT,REYNOLDSBURG,OH,43068-9549,(614) 367-1015
2199,50739 VALLEY PLAZA DR,SAINT CLAIRSVILLE,OH,43950-1751,(740) 695-8410
2910,2875 E STATE ST,SALEM,OH,44460-9303,(330) 337-8313
1628,5500 MILAN RD STE 200,SANDUSKY,OH,44870-7804,(419) 627-8778
1331,2400 MICHIGAN ST,SIDNEY,OH,45365-9080,(937) 498-2371
2362,1868 WARRENSVILLE CENTER RD,SOUTH EUCLID,OH,44121-2686,(216) 382-1657
1478,354 PRIVATE DRIVE 288,SOUTH POINT,OH,45680-7900,(740) 894-3235
2429,2100 N BECHTLE AVE,SPRINGFIELD,OH,45504-1584,(937) 399-0370
3641,200 S TUTTLE RD,SPRINGFIELD,OH,45505-1556,(937) 325-2111
2193,100 MALL DR,STEUBENVILLE,OH,43952-3092,(740) 266-7136
2323,3520 HUDSON DR,STOW,OH,44224-2907,(330) 923-8232
2313,905 SINGLETARY DR,STREETSBORO,OH,44241-3975,(330) 626-9990
2266,8585 PEARL RD,STRONGSVILLE,OH,44136-1641,(440) 826-0004
1622,2801 W STATE ROUTE 18,TIFFIN,OH,44883-8950,(419) 448-4402
5028,2925 GLENDALE AVE,TOLEDO,OH,43614-2684,(419) 380-0994
5030,5821 W CENTRAL AVE,TOLEDO,OH,43615-1403,(419) 536-9105
1410,1801 W MAIN ST,TROY,OH,45373-2303,(937) 339-7211
3809,1855 E WYANDOT AVE,UPPER SANDUSKY,OH,43351-9763,(419) 294-3404
1239,1840 E US HIGHWAY 36,URBANA,OH,43078-9600,(937) 653-5313
1333,301 TOWN CENTER BLVD,VAN WERT,OH,45891-9087,(419) 238-5662
2966,222 E SMOKERISE DR,WADSWORTH,OH,44281-8277,(330) 336-5170
3300,1257 BELLEFONTAINE ST,WAPAKONETA,OH,45895-9732,(419) 738-0474
3251,1397 LEESBURG AVE,WASHINGTON COURT HOUSE,OH,43160-8655,(740) 333-3171
2350,485 AIRPORT HWY,WAUSEON,OH,43567-8709,(419) 337-8900
2572,990 W EMMITT AVE,WAVERLY,OH,45690-1095,(740) 947-1700
2309,8288 CINCINNATI DAYTON RD,WEST CHESTER,OH,45069-2143,(513) 777-2397
1368,11217 STATE ROUTE 41,WEST UNION,OH,45693-9397,(937) 544-7198
5857,50 E SCHROCK RD,WESTERVILLE,OH,43081-2915,(614) 948-4402
3447,3657 E MAIN ST,WHITEHALL,OH,43213-2924,(614) 239-7509
1289,2825 PROGRESS WAY,WILMINGTON,OH,45177-7710,(937) 382-4919
1812,3883 BURBANK RD,WOOSTER,OH,44691-7220,(330) 345-8955
1463,70 HOSPITALITY DR,XENIA,OH,45385-2779,(937) 376-9878
3860,200 GOLDIE RD,YOUNGSTOWN,OH,44505-1948,(330) 759-2066
2209,2850 MAPLE AVE,ZANESVILLE,OH,43701-1723,(740) 455-9001
3581,2850 MAYSVILLE PIKE,ZANESVILLE,OH,43701-8577,(740) 452-3282
231,1419 N COUNTRY CLUB RD,ADA,OK,74820-1836,(580) 332-2232
479,2500 N MAIN ST,ALTUS,OK,73521-1614,(580) 482-8189
178,914 E OKLAHOMA BLVD,ALVA,OK,73717-4010,(580) 327-4021
162,1201 W PETREE RD,ANADARKO,OK,73005-6041,(405) 247-2535
129,1715 N COMMERCE ST,ARDMORE,OK,73401-1535,(580) 226-1257
232,1983 S MISSISSIPPI AVE,ATOKA,OK,74525-3629,(580) 889-6676
41,4000 SE GREEN COUNTRY RD,BARTLESVILLE,OK,74006-5000,(918) 335-6600
136,1219 W DOOLIN AVE,BLACKWELL,OK,74631-1351,(580) 363-4111
324,105 W HIGHWAY 16,BRISTOW,OK,74010-3390,(918) 367-3335
472,2301 W KENOSHA ST,BROKEN ARROW,OK,74012-8912,(918) 259-9126
3295,6310 S ELM PL,BROKEN ARROW,OK,74011-4100,(918) 455-4354
3508,1770 S ELM PL,BROKEN ARROW,OK,74012-6453,(918) 258-6175
4637,3900 E HILLSIDE DR,BROKEN ARROW,OK,74014-6713,(918) 355-1024
4655,1300 E ALBANY ST,BROKEN ARROW,OK,74012-8951,(918) 505-6247
6942,4851 W HOUSTON ST,BROKEN ARROW,OK,74012-4671,(918) 505-6090
117,501 S PARK DR,BROKEN BOW,OK,74728-5329,(580) 584-3324
3055,19801 ROBSON RD,CATOOSA,OK,74015-1510,(918) 739-7001
387,3100 E 1ST ST,CHANDLER,OK,74834-9585,(405) 258-0541
340,131 PAUL CARR DR,CHECOTAH,OK,74426-2063,(918) 473-2201
113,2001 S 1ST ST,CHICKASHA,OK,73018-6007,(405) 224-1867
4195,14185 MACK HARRINGTON DR,CHOCTAW,OK,73020-2035,(405) 390-4262
12,1500 S LYNN RIGGS BLVD,CLAREMORE,OK,74017-8353,(918) 341-2765
207,772 N AIRPORT RD,CLEVELAND,OK,74020-1208,(918) 358-3553
374,11207 S STATE HIGHWAY 51,COWETA,OK,74429-6442,(918) 486-6511
360,3100 E MAIN ST,CUSHING,OK,74023-3072,(918) 225-0578
544,5401 TINKER DIAGONAL ST,DEL CITY,OK,73115-4622,(405) 670-1007
1116,3393 N 81 HWY,DUNCAN,OK,73533-1413,(580) 255-5455
975,3712 W MAIN ST,DURANT,OK,74701-4529,(580) 920-0234
389,1225 W I 35 FRONTAGE RD,EDMOND,OK,73034-7394,(405) 348-8005
2803,2200 W DANFORTH RD,EDMOND,OK,73003-4600,(405) 216-0520
2876,1301 E 2ND ST,EDMOND,OK,73034-5320,(405) 715-2587
3275,1101 NW 164TH ST,EDMOND,OK,73013-1310,(405) 216-8478
227,2400 S COUNTRY CLUB RD,EL RENO,OK,73036-5801,(405) 262-7354
134,210 REGIONAL DR,ELK CITY,OK,73644-6472,(580) 225-3003
499,5505 W OWEN K GARRIOTT RD,ENID,OK,73703-6075,(580) 237-7963
4390,1018 N. CLEVELAND STREET,ENID,OK,73703-0000,(580) 599-6008
4615,12200 S WACO AVE,GLENPOOL,OK,74033-5655,(918) 299-8030
90,2115 S MAIN ST,GROVE,OK,74344-5327,(918) 786-8561
108,1608 S DIVISION ST,GUTHRIE,OK,73044-5015,(405) 282-7900
1437,2600 N HIGHWAY 64,GUYMON,OK,73942-2751,(580) 338-1611
247,605 E MAIN ST,HENRYETTA,OK,74437-4439,(918) 652-9676
607,923 W 11TH ST,HOBART,OK,73651-5435,(580) 726-5693
210,500 EAST HIGHWAY 270,HOLDENVILLE,OK,74848-4238,(405) 379-6688
49,1911 E JACKSON ST,HUGO,OK,74743-4249,(580) 326-6494
38,1907 SE WASHINGTON ST,IDABEL,OK,74745-5253,(580) 286-6696
5336,11020 ELM ST,JENKS,OK,74037-3002,(918) 209-7017
132,200 STARLITE DR,KINGFISHER,OK,73750-4922,(405) 375-5743
269,1002 NW SHERIDAN RD,LAWTON,OK,73505-5208,(580) 355-9070
2984,3745 SW LEE BLVD,LAWTON,OK,73505-8322,(580) 713-7702
5071,6301 NW QUANNAH PARKER TRL,LAWTON,OK,73505-1326,(580) 510-9130
893,401 LINWOOD PLZ,LINDSAY,OK,73052-4602,(405) 756-9535
3723,800 E MAIN,LOCUST GROVE,OK,74352-0000,(918) 479-4810
1295,1100 S 1ST ST,MADILL,OK,73446-3900,(580) 795-7383
151,432 S GEORGE NIGH EXPY,MCALESTER,OK,74501-6025,(918) 423-8585
28,2415 N MAIN ST,MIAMI,OK,74354-2232,(918) 542-6654
5863,7520 E RENO AVE,MIDWEST CITY,OK,73110-4312,(405) 455-4070
277,501 SW 19TH ST,MOORE,OK,73160-5427,(405) 790-0021
2393,640 SE 4TH ST,MOORE,OK,73160-6733,(405) 794-2724
130,1000 W SHAWNEE ST,MUSKOGEE,OK,74401-3509,(918) 687-0058
517,951 E STATE HIGHWAY 152,MUSTANG,OK,73064-5119,(405) 376-4549
1056,3300 TRI CITY DR,NEWCASTLE,OK,73065-6599,(405) 387-3400
212,333 N INTERSTATE DR,NORMAN,OK,73069-6326,(405) 329-4000
2734,601 12TH AVE NE,NORMAN,OK,73071-5324,(405) 579-5203
5805,3571 W ROCK CREEK RD,NORMAN,OK,73072-2473,(405) 515-7283
7294,3651 CLASSEN BLVD,NORMAN,OK,73071-1556,(405) 515-7024
7308,2551 CLASSEN BLVD,NORMAN,OK,73071-4381,(405) 515-7418
564,6100 W RENO AVE,OKLAHOMA CITY,OK,73127-6507,(405) 491-0320
622,7800 NW EXPRESSWAY,OKLAHOMA CITY,OK,73132-1554,(405) 773-2625
1626,2000 W MEMORIAL RD,OKLAHOMA CITY,OK,73134-6506,(405) 752-1900
2394,1500 SW 59TH ST,OKLAHOMA CITY,OK,73119-7214,(405) 684-9761
2804,1801 BELLE ISLE BLVD,OKLAHOMA CITY,OK,73118-4221,(405) 841-6502
2877,11101 N ROCKWELL AVE,OKLAHOMA CITY,OK,73162-2724,(405) 773-3555
2878,911 SW 104TH ST,OKLAHOMA CITY,OK,73139-3009,(405) 692-3860
3202,4900 S SOONER RD,OKLAHOMA CITY,OK,73135-5428,(405) 458-6255
3327,2900 SW 134TH ST,OKLAHOMA CITY,OK,73170-5403,(405) 300-6446
3430,9011 NE 23RD ST,OKLAHOMA CITY,OK,73141-3009,(405) 769-2164
3615,2217 NW 23RD ST,OKLAHOMA CITY,OK,73107-2403,(405) 521-1431
5314,4420 S WESTERN AVE,OKLAHOMA CITY,OK,73109-3414,(405) 632-4497
5323,13503 S SANTA FE AVE,OKLAHOMA CITY,OK,73170-7314,(405) 300-6419
7326,3301 SW 104TH ST,OKLAHOMA CITY,OK,73159-7043,(405) 300-6584
743,100 EAST I 240 SERVI,OKLAHOMA CITY ( SOUTH ),OK,73149-0000,(405) 631-0746
121,1800 S WOOD DR,OKMULGEE,OK,74447-6826,(918) 756-6790
168,12101 E 96TH ST N,OWASSO,OK,74055-5320,(918) 272-6609
4585,11551 N 129TH EAST AVE,OWASSO,OK,74055-7446,(918) 371-3576
5840,12912 E 86TH ST N,OWASSO,OK,74055-8608,(918) 274-0030
1043,PO BOX 938,PAULS VALLEY,OK,73075-0938,(405) 238-7353
823,1101 E PROSPECT AVE,PONCA CITY,OK,74601-1744,(580) 762-0395
31,3108 N BROADWAY ST,POTEAU,OK,74953-5410,(918) 647-5040
22,4901 S MILL ST,PRYOR,OK,74361-6837,(918) 825-6000
139,2015 S GREEN AVE,PURCELL,OK,73080-6200,(405) 527-5621
47,1101 W RUTH AVE,SALLISAW,OK,74955-7252,(918) 775-4492
838,220 S HIGHWAY 97,SAND SPRINGS,OK,74063-6503,(918) 245-0213
73,1002 W TAFT ST,SAPULPA,OK,74066-8720,(918) 224-8080
123,1500 E WRANGLER BLVD,SEMINOLE,OK,74868-3518,(405) 382-5290
103,196 SHAWNEE MALL DR,SHAWNEE,OK,74804-1337,(405) 275-1030
246,700 W ROGERS BLVD,SKIATOOK,OK,74070-1035,(918) 396-1244
276,1312 E MAIN ST,STIGLER,OK,74462-2830,(918) 967-4637
137,111 N PERKINS RD,STILLWATER,OK,74075-5507,(405) 372-2897
4241,4545 W 6TH AVE,STILLWATER,OK,74074-1523,(405) 707-0744
5364,2315 N PERKINS RD,STILLWATER,OK,74075-2203,(405) 564-7116
81,84127 HIGHWAY 59,STILWELL,OK,74960-4257,(918) 696-3141
225,2705 W BROADWAY AVE,SULPHUR,OK,73086-6508,(580) 622-6146
10,2020 S MUSKOGEE AVE,TAHLEQUAH,OK,74464-5439,(918) 456-8804
5286,9320 N PENNSYLVANIA PL,THE VILLAGE,OK,73120-1519,(405) 840-8435
576,207 S MEMORIAL DR,TULSA,OK,74112-2201,(918) 834-8700
894,6625 S MEMORIAL DR,TULSA,OK,74133-2036,(918) 294-3800
992,2019 E 81ST ST,TULSA,OK,74137-4232,(918) 488-8791
1597,10938 S MEMORIAL DR,TULSA,OK,74133-7352,(918) 394-4000
2395,9411 S DELAWARE AVE,TULSA,OK,74137-5614,(918) 299-8316
2880,6606 E 81ST ST,TULSA,OK,74133-4247,(918) 524-1435
3340,4720 E 21ST ST,TULSA,OK,74114-2109,(918) 392-7020
3457,3116 S GARNETT RD,TULSA,OK,74146-1933,(918) 622-7797
5093,4404 S PEORIA AVE,TULSA,OK,74105-3926,(918) 749-1577
6170,3139 S HARVARD AVE E,TULSA,OK,74135-0000,(918) 984-6290
50,268 S 7TH ST,VINITA,OK,74301-3737,(918) 256-7505
63,410 S DEWEY AVE,WAGONER,OK,74467-5500,(918) 485-9515
2875,6437 N. MACARTHUR BLVD,WARR ACRES,OK,73132-6503,(405) 495-1001
392,1349 E EAGLE RD,WEATHERFORD,OK,73096-9208,(580) 772-1408
150,3215 WILLIAMS AVE,WOODWARD,OK,73801-6738,(580) 254-3331
221,1200 GARTH BROOKS BLVD,YUKON,OK,73099-4107,(405) 350-1900
3637,1001 E MAIN ST,YUKON,OK,73099-2137,(405) 577-0049
5396,1330 GOLDFISH FARM RD SE,ALBANY,OR,97322-5154,(541) 971-4052
3050,9055 SW MURRAY BLVD,BEAVERTON,OR,97008-7434,(503) 207-9915
5993,17275 NW CORNELL RD,BEAVERTON CORNELL,OR,97006-3297,(503) 207-7627
2075,20120 PINEBROOK BLVD,BEND,OR,97702-2537,(541) 389-8184
1880,2051 NEWMARK AVE,COOS BAY,OR,97420-4728,(541) 888-5488
4221,220 N ADAIR ST,CORNELIUS,OR,97113-8404,(503) 207-0626
3146,1840 NW 9TH ST,CORVALLIS,OR,97330-2143,(541) 224-0036
2320,901 ROW RIVER RD,COTTAGE GROVE,OR,97424-9558,(541) 942-4600
2315,321 NE KINGS VALLEY HWY,DALLAS,OR,97338-9702,(503) 623-0490
5424,11500 HANNON RD,EAGLE POINT,OR,97524-9598,(541) 826-2210
2538,1040 GREEN ACRES RD,EUGENE,OR,97408-6501,(541) 343-6977
3258,4550 W 11TH AVE,EUGENE,OR,97402-5414,(541) 344-2030
1834,135 NE TERRY LN,GRANTS PASS,OR,97526-4801,(541) 471-2822
3178,2444 E POWELL BLVD,GRESHAM,OR,97080-1311,(503) 492-4725
5627,3900 W POWELL BLVD,GRESHAM,OR,97030-6048,(503) 405-1478
5440,10000 SE 82ND AVE,HAPPY VALLEY,OR,97086-2304,(503) 788-4748
1817,1350 N 1ST ST,HERMISTON,OR,97838-1102,(541) 567-4854
2590,7650 NE SHALEEN ST,HILLSBORO,OR,97006-6764,(503) 268-6919
1876,2700 WASCO ST,HOOD RIVER,OR,97031-1049,(541) 387-2300
1772,3600 WASHBURN WAY,KLAMATH FALLS,OR,97603-4539,(541) 885-6890
1889,11619 ISLAND AVE,LA GRANDE,OR,97850-8459,(541) 963-6783
1775,3290 S SANTIAM HWY,LEBANON,OR,97355-3737,(541) 258-7400
1843,2375 NE HIGHWAY 99W,MCMINNVILLE,OR,97128-9201,(503) 434-9233
2069,1360 CENTER DR,MEDFORD,OR,97501-7941,(541) 772-2060
5839,3615 CRATER LAKE HWY,MEDFORD,OR,97504-9259,(541) 227-5396
3144,15600 SE MCLOUGHLIN BLVD,MILWAUKIE,OR,97267-3857,(503) 303-6755
1925,160 NW 25TH ST,NEWPORT,OR,97365-1637,(541) 265-6560
1951,1775 E IDAHO AVE,ONTARIO,OR,97914-3009,(541) 889-7400
2492,2203 SW COURT AVE,PENDLETON,OR,97801-1896,(541) 966-9970
2243,300 NW OAKTREE LN,REDMOND,OR,97756-1694,(541) 923-5972
2477,2125 NW STEWART PKWY,ROSEBURG,OR,97471-1693,(541) 957-8550
2422,2295 GABLE RD,SAINT HELENS,OR,97051-3005,(503) 366-5866
1784,3025 LANCASTER DR NE,SALEM,OR,97305-1348,(503) 378-7424
1920,5250 COMMERCIAL ST SE,SALEM,OR,97306-1018,(503) 378-1336
5368,1940 TURNER RD SE,SALEM,OR,97302-2003,(503) 391-0394
4176,21320 SW LANGER FARMS PKWY,SHERWOOD,OR,97140-9105,(503) 825-4050
3239,2659 OLYMPIC ST,SPRINGFIELD,OR,97477-3473,(541) 744-3004
4178,2730 GATEWAY ST,SPRINGFIELD,OR,97477-7705,(541) 632-7087
5935,7600 SW DARTMOUTH ST,TIGARD,OR,97223-8181,(503) 268-5270
5861,1791 SE ENSIGN LN,WARRENTON,OR,97146-7410,(503) 861-0644
5994,19133 WILLAMETTE DR,WEST LINN,OR,97068-2019,(503) 303-1094
2927,23500 NE SANDY BLVD,WOOD VILLAGE,OR,97060-9653,(503) 665-9200
1793,3002 STACEY ALLISON WAY,WOODBURN,OR,97071-2904,(503) 981-9622
2641,1091 MILLCREEK RD,ALLENTOWN,PA,18106-9157,(610) 530-1400
2049,2600 PLANK ROAD COMM,ALTOONA,PA,16602-0000,(814) 949-8980
4643,1500 ECONOMY WAY,BADEN,PA,15005-0000,(724) 390-9016
3223,100 CHIPPEWA TOWN CTR,BEAVER FALLS,PA,15010-1204,(724) 843-1100
5239,567 ROUTE 100 N,BECHTELSVILLE,PA,19505-9263,(610) 367-1005
2420,100 SARA WAY,BELLE VERNON,PA,15012-1963,(724) 929-2424
5381,5055 LIBRARY RD,BETHEL PARK,PA,15102-2813,(412) 831-0459
3563,3926 LINDEN ST,BETHLEHEM,PA,18020-5846,(610) 867-1300
5356,300 RESORT PLAZA DR,BLAIRSVILLE,PA,15717-7934,(724) 459-3349
1794,100 LUNGER DR,BLOOMSBURG,PA,17815-8330,(570) 389-5750
3252,605 CONCHESTER HWY,BOOTHWYN,PA,19061-3147,(610) 494-2535
3514,50 FOSTER BROOK BLVD,BRADFORD,PA,16701-3276,(814) 368-4600
1885,400 BUTLER CMNS,BUTLER,PA,16001-2496,(724) 282-4060
5888,3400 HARTZDALE DR,CAMP HILL,PA,17011-7213,(717) 409-3102
2574,60 NOBLE BLVD,CARLISLE,PA,17013-4119,(717) 258-1250
5040,2200 WASHINGTON PIKE,CARNEGIE,PA,15106-3750,(412) 429-1285
1850,1730 LINCOLN WAY E,CHAMBERSBURG,PA,17202-3348,(717) 264-2300
2540,63 PERKINS RD,CLARION,PA,16214-8527,(814) 226-0809
2129,100 SUPERCENTER DR,CLEARFIELD,PA,16830-6027,(814) 765-8089
2481,9300 STATE ROUTE 61,COAL TOWNSHIP,PA,17866-4178,(570) 648-6700
5379,1450 MORRELL AVE,CONNELLSVILLE,PA,15425-3809,(724) 626-4470
2909,961 E COLUMBUS AVE,CORRY,PA,16407-9163,(814) 663-8070
2597,10 KIMBERLY LN,CRANBERRY,PA,16319-3134,(814) 678-0037
1770,20245 ROUTE 19,CRANBERRY TOWNSHIP,PA,16066-6101,(724) 772-4550
3228,6700 HOLLYWOOD BLVD,DELMONT,PA,15626-2401,(724) 468-6274
1884,900 COMMERCE BLVD,DICKSON CITY,PA,18519-1767,(570) 383-2354
1769,20 INDUSTRIAL DR,DU BOIS,PA,15801-3842,(814) 375-5000
4348,200 COMMERCE DR,DUNCANSVILLE,PA,16635-4845,(814) 693-0531
3810,620 GRAVEL PIKE,EAST GREENVILLE,PA,18041-2130,(215) 679-2782
2368,355 LINCOLN AVE,EAST STROUDSBURG,PA,18301-2814,(570) 424-8415
2252,3722 EASTON NAZARETH HWY,EASTON,PA,18045-8340,(610) 250-8603
2663,300 WALMART DR,EBENSBURG,PA,15931-4212,(814) 471-0200
2830,EDDYSTONE CROSSING,EDDYSTONE,PA,19022-0000,(610) 447-1860
3253,108 WASHINGTON TOWNE BLVD N,EDINBORO,PA,16412-1254,(814) 734-0900
3412,200 KOCHER LN,ELIZABETHVILLE,PA,17023-8716,(717) 362-3696
3501,100 CROSSINGS BLVD,ELVERSON,PA,19520-9069,(610) 913-2000
2340,890 E MAIN ST,EPHRATA,PA,17522-2562,(717) 721-6680
2278,1825 DOWNS DR,ERIE,PA,16509-7303,(814) 864-7330
2561,5350 W RIDGE RD,ERIE,PA,16506-1222,(814) 835-0556
5445,2711 ELM ST,ERIE,PA,16504-2935,(814) 459-3625
4404,50 NEWBERRY PKWY,ETTERS,PA,17319-8966,(717) 932-4384
1684,72 BEDFORD SQ,EVERETT,PA,15537-6934,(814) 623-3332
2167,270 INDIAN RUN ST,EXTON,PA,19341-3706,(484) 875-9053
1537,1270 YORK RD,GETTYSBURG,PA,17325-7562,(717) 334-2000
2603,300 WALMART DR,GIBSONIA,PA,15044-9610,(724) 449-2700
5495,50 N MACDADE BLVD,GLENOLDEN,PA,19036-1223,(610) 583-2682
2059,2200 GREENGATE CENTRE CIR,GREENSBURG,PA,15601-1290,(724) 830-2440
2674,45 WILLIAMSON RD,GREENVILLE,PA,16125-1253,(724) 589-0211
2008,1566 W MAIN STREET EXT,GROVE CITY,PA,16127-4432,(724) 458-5877
4612,1800 TILDEN RIDGE,HAMBURG,PA,19526-8181,(484) 668-4001
1823,495 EISENHOWER DR,HANOVER,PA,17331-5215,(717) 632-8444
5469,1881 BALTIMORE PIKE,HANOVER,PA,17331-9605,(717) 630-8211
3281,5741 BUFFALO RD,HARBORCREEK,PA,16421-1626,(814) 899-6255
2236,651 MAIN ST,HARLEYSVILLE,PA,19438-1772,(215) 513-0205
1591,6535 GRAYSON RD,HARRISBURG,PA,17111-5141,(717) 561-8402
2445,1515 BETHLEHEM PIKE,HATFIELD,PA,19440-1301,(215) 997-2929
2255,761 AIRPORT RD,HAZLE TOWNSHIP,PA,18202-3282,(570) 454-8322
1568,1275 N HERMITAGE RD,HERMITAGE,PA,16148-3110,(724) 346-5940
2480,723A OLD WILLOW AVE,HONESDALE,PA,18431-4217,(570) 251-9543
5470,6716 TOWNE CENTER BLVD,HUNTINGDON,PA,16652-6933,(814) 644-6910
2318,3100 OAKLAND AVE,INDIANA,PA,15701-3240,(724) 349-3565
1935,150 TOWN CENTRE DR,JOHNSTOWN,PA,15904-2858,(814) 266-6996
3541,516 SCHOOL HOUSE RD,KENNETT SQUARE,PA,19348-1742,(610) 444-2268
4687,275 N GULPH RD,KING OF PRUSSIA,PA,19406-2803,(610) 768-0530
1820,1 HILLTOP PLZ,KITTANNING,PA,16201-8905,(724) 543-2023
2334,2034 LINCOLN HWY E,LANCASTER,PA,17602-3329,(717) 390-1738
5200,2030 FRUITVILLE PIKE,LANCASTER,PA,17601-3998,(717) 581-0200
2502,100 COLONY LN,LATROBE,PA,15650-9073,(724) 537-0928
2023,1355 E LEHMAN ST,LEBANON,PA,17046-8337,(717) 228-1221
2169,1731 BLAKESLEE BOULEVARD DR E,LEHIGHTON,PA,18235-9824,(570) 386-3356
2068,180 LEVITTOWN CTR,LEVITTOWN,PA,19055-2601,(215) 949-6600
1644,120 AJK BLVD,LEWISBURG,PA,17837-7491,(570) 522-8200
1607,10180 US HIGHWAY 522 S,LEWISTOWN,PA,17044-8938,(717) 242-6201
1945,1169 S MAIN ST,MANSFIELD,PA,16933-9537,(570) 662-1115
1656,16086 CONNEAUT LAKE RD,MEADVILLE,PA,16335-3884,(814) 724-6267
1886,6520 CARLISLE PIKE STE 550,MECHANICSBURG,PA,17050-5257,(717) 691-3150
2064,220 ROUTE 6 AND 209,MILFORD,PA,18337-9454,(570) 491-4940
2528,167 HOGAN BLVD,MILL HALL,PA,17751-1902,(570) 893-4627
1883,3942 BRODHEAD RD,MONACA,PA,15061-3028,(724) 773-2929
1887,1015 N LOYALSOCK AVE,MONTOURSVILLE,PA,17754-1065,(570) 368-5450
4644,7500 UNIVERSITY BOULEVARD,MOON TOWNSHIP,PA,15108-2532,(412) 893-0143
2611,2100 SUMMIT RIDGE PLZ,MOUNT PLEASANT,PA,15666-1992,(724) 542-7300
2365,3271 ROUTE 940,MOUNT POCONO,PA,18344-1150,(570) 895-4700
3738,100 HIGHLANDS MALL,NATRONA HEIGHTS,PA,15065-1971,(724) 226-6949
2287,2501 W STATE ST,NEW CASTLE,PA,16101-1039,(724) 657-9390
3475,650 S TROOPER RD,NORRISTOWN,PA,19403-3416,(610) 631-6750
5241,915 MILLS DR,NORTH HUNTINGDON,PA,15642-4129,(724) 382-3160
2588,100 WALMART DR,NORTH VERSAILLES,PA,15137-1535,(412) 816-0301
5795,800 COMMONS DR,OXFORD,PA,19363-1247,(484) 702-7206
2888,100 NO LONDONDERRY SQUARE,PALMYRA,PA,17078-3904,(717) 838-0800
2945,100 COMMONS DR,PARKESBURG,PA,19365-2150,(610) 857-0500
2141,1675 S CHRISTOPHER COLUMBUS BLVD,PHILADELPHIA,PA,19148-1402,(215) 468-4220
2650,4301 BYBERRY ROAD,PHILADELPHIA,PA,19154-3112,(215) 281-3159
5103,4600 ROOSEVELT BLVD BLDG G,PHILADELPHIA,PA,19124-2340,(215) 288-0700
5130,9745 ROOSEVELT BLVD STE A,PHILADELPHIA,PA,19114-1014,(215) 698-0350
5891,2200 WHEATSHEAF LN,PHILADELPHIA,PA,19137-1019,(215) 613-2236
2300,250 SUMMIT PARK DR,PITTSBURGH,PA,15275-1202,(412) 788-9079
2543,390 ROUTE 315 HWY,PITTSTON,PA,18640-3903,(570) 883-9400
2263,233 SHOEMAKER RD,POTTSTOWN,PA,19464-6441,(610) 327-3204
2664,21920 ROUTE 119,PUNXSUTAWNEY,PA,15767-7975,(814) 938-3500
2446,195 N WEST END BLVD,QUAKERTOWN,PA,18951-2306,(215) 529-7689
1777,5900 PERKIOMEN AVE,READING,PA,19606-3635,(610) 582-0505
2535,500 TERRY RICH BLVD,SAINT CLAIR,PA,17970-1090,(570) 429-1959
1792,1102 MILLION DOLLAR HWY,SAINT MARYS,PA,15857-2728,(814) 781-1344
2208,1887 ELMIRA ST,SAYRE,PA,18840-9249,(570) 888-9791
2185,980 N SUSQUEHANNA TRL,SELINSGROVE,PA,17870-7766,(570) 374-1230
5358,100 S CONESTOGA DR,SHIPPENSBURG,PA,17257-9031,(717) 532-4240
2519,698 SHREWSBURY COMMONS AVE,SHREWSBURY,PA,17361-1617,(717) 235-6363
1765,2028 N CENTER AVE,SOMERSET,PA,15501-7436,(814) 443-6962
5881,400 S STATE RD,SPRINGFIELD,PA,19064-1243,(610) 605-3154
1640,1665 N ATHERTON ST,STATE COLLEGE,PA,16803-1417,(814) 237-8401
2230,373 BENNER PIKE,STATE COLLEGE,PA,16801-7304,(814) 235-9306
3634,35 PLAZA DR,TAMAQUA,PA,18252-4405,(570) 668-2054
3838,2010 VILLAGE CENTER DR,TARENTUM,PA,15084-3850,(724) 274-0260
4276,1325 MAIN,TAYLOR,PA,18517-1316,(570) 309-3510
2614,5370 ALLENTOWN PIKE,TEMPLE,PA,19560-1200,(610) 939-0601
5360,11415 HYDETOWN RD,TITUSVILLE,PA,16354-1333,(814) 827-0850
5131,3461 HORIZON BLVD,TREVOSE,PA,19053-4967,(215) 942-4005
2024,808 HUNTER HWY,TUNKHANNOCK,PA,18657-8071,(570) 836-8064
2019,355 WALMART DR,UNIONTOWN,PA,15401-8424,(724) 438-3344
2096,100 E STREET RD,WARMINSTER,PA,18974-3400,(215) 442-5670
3429,2901 MARKET ST,WARREN,PA,16365-5216,(814) 723-2640
5649,299 VALLEY GATE DR,WARRINGTON,PA,18976-2745,(215) 488-9026
1739,30 TRINITY POINT DR,WASHINGTON,PA,15301-2974,(724) 229-4020
3633,12751 WASHINGTON TOWNSHIP BLVD,WAYNESBORO,PA,17268-8502,(717) 762-2282
5446,405 MURTHA DR,WAYNESBURG,PA,15370-7010,(724) 627-3496
4501,134 DANIEL KENDALL DR,WEST BROWNSVILLE,PA,15417-8303,(724) 364-4076
2281,2351 CENTURY DR,WEST MIFFLIN,PA,15122-2430,(412) 655-3404
2145,2601 MACARTHUR RD,WHITEHALL,PA,18052-3818,(610) 266-9645
1623,2150 WILKES BARRE TWNSP MKTPL,WILKES BARRE,PA,18702-6059,(570) 821-6180
3564,2101 BLAIR MILL RD,WILLOW GROVE,PA,19090-1751,(215) 830-8370
5229,1000 EASTON RD STE 200,WYNCOTE,PA,19095-2900,(215) 887-6737
1670,1135 BERKSHIRE BLVD,WYOMISSING,PA,19610-1243,(610) 376-5848
1529,2801 E MARKET ST BLDG B,YORK,PA,17402-2406,(717) 755-1600
2205,1000 TOWN CENTER DRIVE,YORK,PA,17408-4609,(717) 764-1485
2302,CARR. #2 KM. 56.6,BARCELONETA,PR,00617-0000,(787) 970-8100
2501,501 AVE WEST MAIN,BAYAMON,PR,00961-3867,(787) 269-2200
2449,RAFAEL CORDERO AVE #301,CAGUAS,PR,00725-0000,(787) 653-1376
5802,PLAZA CANOVANAS HWY 3 INT NEW RT 66,CANOVANAS,PR,00729-0000,(787) 957-2700
2423,BO SAN ANTON CARR 3,CAROLINA,PR,00987-0000,(787) 257-0082
2721,PLAZA CAYEY 102 8000 AVE. JESUS T. PIÃ‘ERO,CAYEY,PR,00736-0000,(787) 738-7215
1822,150 CARR 940 STE 180,FAJARDO,PR,00738-3653,(787) 860-1020
2072,AVE. LOS VETERANOS KM 134.7,GUAYAMA,PR,00784-0000,(787) 686-9400
1854,PLAZA DEL MAR SHOPPING CENTER,HATILLO,PR,00659-0000,(787) 544-4851
2240,RIO ABAJO,HUMACAO,PR,00791-0000,(787) 852-9600
2085,ARENA BAJA,ISABELA,PR,00662-0000,(787) 830-3030
3716,PLAZA MONTE REAL,MANATI,PR,00674-0000,(787) 884-3400
2067,975 AVE HOSTOS STE 2100,MAYAGUEZ,PR,00680-1252,(787) 265-1099
2026,3305 AVE.BARAMAYA SUITE 100,PONCE,PR,00728-0000,(787) 709-4026
5793,"333 PR-14, COTO LAUREL",PONCE,PR,00780-2157,(787) 842-0420
5803,701 AVENIDA ROBERTO H TODD,SAN JUAN,PR,00907-0000,(787) 641-5600
3693,CARR ESTATAL #153 KM 7.2,SANTA ISABEL,PR,00757-0000,(787) 971-1000
2346,CARR #2 SECTOR LA VIRGENCITA INTER,TOA BAJA,PR,00949-0000,(787) 641-5656
2283,650 CENTRE OF NEW ENGLAND BLVD,COVENTRY,RI,02816-6081,(401) 823-7780
1873,1776 PLAINFIELD PIKE,CRANSTON,RI,02921-2042,(401) 946-2030
2885,199 CONNELL HWY,NEWPORT,RI,02840-1091,(401) 848-5167
2261,1031 TEN ROD RD,NORTH KINGSTOWN,RI,02852-4125,(401) 294-0025
2225,7 DOWLING VILLAGE BLVD,NORTH SMITHFIELD,RI,02896-8266,(401) 766-1961
3301,51 SILVER SPRING ST,PROVIDENCE,RI,02904-2557,(401) 272-5047
2373,840 POST RD,WARWICK,RI,02888-6308,(401) 781-2233
2747,650 BALD HILL RD,WARWICK,RI,02886-1863,(401) 821-1766
1964,258 POST RD,WESTERLY,RI,02891-2630,(401) 322-0790
514,2035 WHISKEY RD,AIKEN,SC,29803-7956,(803) 648-9197
4487,3581 RICHLAND AVE W,AIKEN,SC,29801-6311,(803) 648-5551
396,3812 LIBERTY HWY,ANDERSON,SC,29621-1344,(864) 225-1800
644,651 HIGHWAY 28 BYP,ANDERSON,SC,29624-3009,(864) 261-7420
4443,2003 E GREENVILLE ST,ANDERSON,SC,29621-1529,(864) 760-6161
795,11391 DUNBARTON BLVD,BARNWELL,SC,29812-3033,(803) 259-2000
1383,350 ROBERT SMALLS PKWY,BEAUFORT,SC,29906-4284,(843) 522-8221
7181,265 SEA ISLAND PKWY,BEAUFORT,SC,29907-1535,(843) 489-3216
4457,1250 BENNETTSVILLE SQ,BENNETTSVILLE,SC,29512-6275,(843) 479-0002
6395,4 BLUFFTON RD,BLUFFTON,SC,29910-7621,(843) 815-5159
2806,4000 HWY 9,BOILING SPRINGS,SC,29316-8501,(864) 814-2889
634,2240 W DEKALB ST,CAMDEN,SC,29020-2069,(803) 425-5746
5378,1355 KNOX ABBOTT DR,CAYCE,SC,29033-3327,(803) 223-0762
3222,1286 EIGHTEEN MILE RD,CENTRAL,SC,29630-8605,(864) 639-2525
1748,3951 W ASHLEY CIR,CHARLESTON,SC,29414-9156,(843) 763-5554
2348,1231 FOLLY RD,CHARLESTON,SC,29412-4105,(843) 762-9034
642,1040 CHESTERFIELD HWY,CHERAW,SC,29520-7010,(843) 537-6381
1603,1691 J A COCHRAN BYP,CHESTER,SC,29706-2190,(803) 581-6278
4445,680 OLD GREENVILLE HWY,CLEMSON,SC,29631-0000,(864) 722-6050
1164,360 HARBISON BLVD,COLUMBIA,SC,29212-2248,(803) 781-0762
1286,7520 GARNERS FERRY RD,COLUMBIA,SC,29209-2628,(803) 783-1277
1339,10060 TWO NOTCH RD,COLUMBIA,SC,29223-4396,(803) 736-8123
2214,5420 FOREST DR,COLUMBIA,SC,29206-5401,(803) 782-0323
4506,321 KILLIAN RD,COLUMBIA,SC,29203-9607,(803) 754-8884
5291,1019 OLD BARNWELL RD,COLUMBIA,SC,29170-0000,(803) 821-7049
586,2709 CHURCH ST STE A,CONWAY,SC,29526-4440,(843) 365-0303
4664,151 MYRTLE RIDGE DR,CONWAY,SC,29526-2702,(843) 234-2040
7188,251 ANDOVER PL,DARLINGTON,SC,29532-1500,(843) 393-2067
627,805 ENTERPRISE RD,DILLON,SC,29536-7821,(843) 841-9800
631,115 ROLLING HILLS CIR,EASLEY,SC,29640-7109,(864) 859-8595
630,230 N BELTLINE DR,FLORENCE,SC,29501-7403,(843) 664-2020
2703,2014 S IRBY ST,FLORENCE,SC,29505-3420,(843) 292-0862
3638,804 S CASHUA DRIVE,FLORENCE,SC,29501-6311,(843) 269-9979
3359,500 N DOBYS BRIDGE ROAD,FORT MILL,SC,29715-6815,(803) 228-6049
638,165 WALTON DR,GAFFNEY,SC,29341-1268,(864) 487-3769
5705,545 GARDEN CITY CONNECTOR,GARDEN CITY BEACH,SC,29576-7847,(843) 357-6560
625,1310 N FRASER ST,GEORGETOWN,SC,29440-2800,(843) 527-9970
2928,605 SAINT JAMES AVE,GOOSE CREEK,SC,29445-2758,(843) 553-5421
3646,1635 RED BANK RD,GOOSE CREEK,SC,29445-4589,(843) 619-4662
3899,215 SAINT JAMES AVE,GOOSE CREEK,SC,29445-2938,(843) 714-6288
640,1451 WOODRUFF RD,GREENVILLE,SC,29607-5741,(864) 297-3031
641,6134 WHITE HORSE RD,GREENVILLE,SC,29611-3837,(864) 295-3181
2328,2014 WADE HAMPTON BLVD,GREENVILLE,SC,29615-1037,(864) 214-8700
3192,11410 ANDERSON RD,GREENVILLE,SC,29611-0000,(864) 605-6039
4452,5009 OLD BUNCOMBE RD,GREENVILLE,SC,29617-8203,(864) 605-6309
4583,3925 PELHAM RD,GREENVILLE,SC,29615-5004,(864) 288-8081
1382,508 NW BYPASS 72,GREENWOOD,SC,29649-1300,(864) 229-2232
6887,300 BYPASS 25 NE,GREENWOOD,SC,29646-3009,(864) 321-6028
2687,14055 E WADE HAMPTON BLVD,GREER,SC,29651-1500,(864) 877-1928
4145,805 W WADE HAMPTON BLVD STE B,GREER,SC,29650-1311,(864) 655-6422
2832,4400 US HIGHWAY 278,HARDEEVILLE,SC,29927-9733,(843) 208-3000
1135,1150 S 4TH ST,HARTSVILLE,SC,29550-0705,(843) 383-4891
728,25 PEMBROKE DR,HILTON HEAD ISLAND,SC,29926-2259,(843) 681-3011
4237,10048 CHARLOTTE HWY,INDIAN LAND,SC,29707-7135,(803) 802-6666
4440,1180 DUTCH FORK RD,IRMO,SC,29063-8874,(803) 781-7775
3713,3685 LADSON RD,LADSON,SC,29456-4304,(843) 879-5289
621,900 US 52 HWY,LAKE CITY,SC,29560-2416,(843) 394-7405
5745,175 HIGHWAY 274,LAKE WYLIE,SC,29710-6045,(803) 619-7021
1030,805 LANCASTER BYP W,LANCASTER,SC,29720-4773,(803) 286-5445
1130,922 E MAIN ST,LAURENS,SC,29360-3616,(864) 682-8100
4420,115 E CHURCH ST,LEESVILLE,SC,29070-7595,(803) 532-5332
881,5556 SUNSET BLVD,LEXINGTON,SC,29072-7989,(803) 808-3740
4521,1780 S LAKE DR,LEXINGTON,SC,29073-8102,(803) 957-2557
1017,2010 PAXVILLE HWY,MANNING,SC,29102-6434,(803) 435-4323
1829,305 COMMERCE DR,MARION,SC,29574-6241,(843) 423-9444
1146,511 N HIGHWAY 52,MONCKS CORNER,SC,29461-3132,(843) 899-5701
632,1481 N HIGHWAY 17,MOUNT PLEASANT,SC,29464-3332,(843) 881-6100
4384,3000 PROPRIETORS PL,MOUNT PLEASANT,SC,29466-8361,(843) 884-2844
3442,11980 HIGHWAY 17 BYP,MURRELLS INLET,SC,29576-9339,(843) 357-0409
643,10820 KINGS RD,MYRTLE BEACH,SC,29572-6070,(843) 449-0502
2712,541 SEABOARD ST,MYRTLE BEACH,SC,29577-9733,(843) 445-7781
2870,3915 N KINGS HWY,MYRTLE BEACH,SC,29577-2742,(843) 353-5590
2887,125 MARYPORT DR,MYRTLE BEACH,SC,29575-6513,(843) 232-0485
5367,1705 S KINGS HWY,MYRTLE BEACH,SC,29577-4601,(843) 353-5641
5923,3650 WALTON DR,MYRTLE BEACH,SC,29577-6775,(843) 839-9845
624,2812 MAIN ST,NEWBERRY,SC,29108-4134,(803) 276-4411
1270,1201 KNOX AVE,NORTH AUGUSTA,SC,29841-4056,(803) 279-0545
6576,1041 EDGEFIELD RD,NORTH AUGUSTA,SC,29860-9279,(803) 613-3082
1359,7400 RIVERS AVE,NORTH CHARLESTON,SC,29406-4644,(843) 572-9660
3367,4920 CENTRE POINTE DR,NORTH CHARLESTON,SC,29418-6927,(843) 740-1112
5087,550 HIGHWAY 17 N,NORTH MYRTLE BEACH,SC,29582-2904,(843) 281-8352
616,2795 NORTH RD,ORANGEBURG,SC,29118-2806,(803) 533-0645
3724,332 STONEWALL JACKSON BLVD,ORANGEBURG,SC,29115-7291,(803) 997-6137
3191,2637 GENTRY MEMORIAL HWY,PICKENS,SC,29671-9429,(864) 644-9020
585,2377 DAVE LYLE BLVD,ROCK HILL,SC,29730-7939,(803) 366-9431
4593,4875 OLD YORK RD,ROCK HILL,SC,29732-8127,(803) 323-2080
6962,1225 CHERRY RD,ROCK HILL,SC,29730-0000,(803) 324-1245
1123,1636 SANDIFER BLVD,SENECA,SC,29678-0906,(864) 885-0408
2265,3950 GRANDVIEW DR,SIMPSONVILLE,SC,29680-3163,(864) 963-0049
3628,115 HIGHWAY 14,SIMPSONVILLE,SC,29681-6051,(864) 757-7086
5371,1401 W GEORGIA RD,SIMPSONVILLE,SC,29680-6322,(864) 757-7208
1035,141 DORMAN CENTRE DR,SPARTANBURG,SC,29301-2625,(864) 574-6452
1281,2151 E MAIN ST,SPARTANBURG,SC,29307-1441,(864) 529-0156
3338,203 CEDAR SPRINGS RD,SPARTANBURG,SC,29302-4639,(864) 381-6365
628,9880 DORCHESTER RD,SUMMERVILLE,SC,29485-8545,(843) 871-3303
1037,1317 N MAIN ST STE A1,SUMMERVILLE,SC,29483-7342,(843) 821-1991
5279,1616 CENTRAL AVE,SUMMERVILLE,SC,29483-9312,(843) 879-5203
6174,10635 DORCHESTER RD,SUMMERVILLE,SC,29485-7610,(843) 879-5149
377,343 PINEWOOD RD,SUMTER,SC,29150-5442,(803) 305-6238
511,1283 BROAD ST,SUMTER,SC,29150-1973,(803) 905-5500
5383,615 BULTMAN DR,SUMTER,SC,29150-2514,(803) 305-6192
574,2751 BEAVER RUN BLVD,SURFSIDE BEACH,SC,29575-5381,(843) 650-4800
1244,3027 WADE HAMPTON BLVD,TAYLORS,SC,29687-2789,(864) 292-8155
3733,1151 STONECREST BLVD,TEGA CAY,SC,29708-6555,(803) 578-4140
5487,9 BENTON RD,TRAVELERS REST,SC,29690-2168,(864) 834-7179
629,513 N DUNCAN BYP,UNION,SC,29379-8682,(864) 429-0598
1358,2110 BELLS HWY,WALTERBORO,SC,29488-6978,(843) 539-1550
1183,2401 AUGUSTA RD,WEST COLUMBIA,SC,29169-4543,(803) 796-9144
1144,970 E LIBERTY ST,YORK,SC,29745-1662,(803) 684-5486
1520,3820 7TH AVE SE,ABERDEEN,SD,57401-6638,(605) 229-2345
1538,2233 6TH ST.,BROOKINGS,SD,57006-1731,(605) 692-6332
3853,2791 DAKOTA AVE S,HURON,SD,57350-4411,(605) 353-0891
2990,1101 E SPRUCE ST,MITCHELL,SD,57301-4867,(605) 995-6840
1685,1730 N GARFIELD AVE,PIERRE,SD,57501-5507,(605) 224-8830
1604,1200 N LACROSSE ST,RAPID CITY,SD,57701-6965,(605) 342-9444
3872,100 STUMER RD,RAPID CITY,SD,57701-6417,(605) 877-3291
1535,3209 S LOUISE AVE,SIOUX FALLS,SD,57106-0704,(605) 362-1002
2443,7821 S MINNESOTA AVE,SIOUX FALLS,SD,57108-2797,(605) 338-9873
3237,5521 E ARROWHEAD PKWY,SIOUX FALLS,SD,57110-0400,(605) 367-3140
4865,5200 W 60TH ST N,SIOUX FALLS,SD,57107-6419,(605) 906-6078
1543,2825 1ST AVE,SPEARFISH,SD,57783-3261,(605) 642-2460
3734,1207 PRINCETON AVE,VERMILLION,SD,57069-7232,(605) 624-0215
1500,1201 29TH ST SE,WATERTOWN,SD,57201-9179,(605) 882-0801
1483,3001 BROADWAY AVE,YANKTON,SD,57078-4890,(605) 665-1425
672,1030 HUNTERS XING,ALCOA,TN,37701-1849,(865) 984-1099
5175,589 W MAIN ST,ALGOOD,TN,38506-5320,(931) 537-3880
5058,3035 HAMILTON CHURCH RD,ANTIOCH,TN,37013-1429,(615) 360-2228
1226,1626 HIGHWAY 12 S,ASHLAND CITY,TN,37015-3322,(615) 792-7782
663,1815 DECATUR PIKE,ATHENS,TN,37303-4932,(423) 745-0395
950,8400 US HIGHWAY 64,BARTLETT,TN,38133-4187,(901) 382-6101
3599,6520 MEMPHIS ARLINGTON RD,BARTLETT,TN,38135-2402,(901) 388-1004
466,1604 W MARKET ST,BOLIVAR,TN,38008-1536,(731) 658-7794
620,220 CENTURY BLVD,BRISTOL,TN,37620-6721,(423) 968-2777
64,1100 S DUPREE AVE,BROWNSVILLE,TN,38012-3234,(731) 772-9551
738,2200 HIGHWAY 641 N,CAMDEN,TN,38320-5276,(731) 584-4445
568,125 MYERS ST,CARTHAGE,TN,37030-1174,(615) 735-2049
1469,2020 GUNBARREL RD STE 250,CHATTANOOGA,TN,37421-2663,(423) 899-7021
3619,3901 HIXSON PIKE,CHATTANOOGA,TN,37415-3568,(423) 508-1151
3659,501 SIGNAL MOUNTAIN RD,CHATTANOOGA,TN,37405-1919,(423) 756-7202
3660,3550 CUMMINGS HWY,CHATTANOOGA,TN,37419-2311,(423) 821-1556
5143,8101 EAST BRAINERD RD,CHATTANOOGA,TN,37421-4302,(423) 508-1193
5251,490 GREENWAY VIEW DR,CHATTANOOGA,TN,37411-5689,(423) 892-8911
673,3050 WILMA RUDOLPH BLVD,CLARKSVILLE,TN,37040-5031,(931) 553-8127
1075,1680 FORT CAMPBELL BLVD,CLARKSVILLE,TN,37042-3537,(931) 645-8439
3495,2315 MADISON ST,CLARKSVILLE,TN,37043-5454,(931) 552-1010
4469,2551 WHITFIELD RD,CLARKSVILLE,TN,37040-7500,(931) 436-9565
4589,216 DOVER RD,CLARKSVILLE,TN,37042-4156,(931) 436-9581
4591,408 TINY TOWN RD,CLARKSVILLE,TN,37042-5642,(931) 771-0009
698,4495 KEITH ST NW,CLEVELAND,TN,37312-4820,(423) 472-1436
5263,2300 TREASURY DR SE,CLEVELAND,TN,37323-7185,(423) 472-9660
4635,150 TANNER LN,CLINTON,TN,37716-6682,(865) 457-4121
175,560 W POPLAR AVE,COLLIERVILLE,TN,38017-6507,(901) 854-5100
192,2200 BROOKMEADE DR,COLUMBIA,TN,38401-3994,(931) 381-6892
657,768 S JEFFERSON AVE,COOKEVILLE,TN,38501-4070,(931) 520-0232
2322,577 N GERMANTOWN PKWY,CORDOVA,TN,38018-6211,(901) 758-1591
93,201 LANNY BRIDGES AVE,COVINGTON,TN,38019-1615,(901) 476-4492
687,168 OBED PLZ STE 108,CROSSVILLE,TN,38555-8890,(931) 484-9745
619,3034 RHEA COUNTY HWY,DAYTON,TN,37321-5806,(423) 775-4448
264,175 BEASLEY DR,DICKSON,TN,37055-2841,(615) 446-4588
4226,16773 RANKIN AVE,DUNLAP,TN,37327-7021,(423) 949-7778
677,2650 LAKE RD,DYERSBURG,TN,38024-1656,(731) 285-3700
4692,4150 RINGGOLD RD,EAST RIDGE,TN,37412-2436,(423) 508-1157
690,1001 OVER MOUNTAIN DR,ELIZABETHTON,TN,37643-2855,(423) 543-8133
3137,7100 HOPGOOD RD,FAIRVIEW,TN,37062-0000,(615) 387-7020
314,1224 HUNTSVILLE HWY,FAYETTEVILLE,TN,37334-3618,(931) 433-3010
272,3600 MALLORY LN,FRANKLIN,TN,37067-2900,(615) 771-0929
674,1112 NASHVILLE PIKE,GALLATIN,TN,37066-7116,(615) 452-8452
680,3755 E ANDREW JOHNSON HWY,GREENEVILLE,TN,37745-1084,(423) 639-8181
1376,204 N ANDERSON LN,HENDERSONVILLE,TN,37075-6926,(615) 264-0770
710,4424 LEBANON PIKE,HERMITAGE,TN,37076-1312,(615) 883-0201
1606,5764 HIGHWAY 153,HIXSON,TN,37343-3727,(423) 870-1680
5188,7636 MIDDLE VALLEY RD,HIXSON,TN,37343-2237,(423) 242-0622
1115,PO BOX 535,HOHENWALD,TN,38462-0535,(931) 796-3282
120,2716 N CENTRAL AVE,HUMBOLDT,TN,38343-1560,(731) 784-0025
161,180 VETERANS DR N,HUNTINGDON,TN,38344-6202,(731) 986-4439
1466,2824 APPALACHIAN HWY,JACKSBORO,TN,37757-2829,(423) 566-5318
335,2196 EMPORIUM DR,JACKSON,TN,38305-6004,(731) 664-1157
393,2171 S HIGHLAND AVE,JACKSON,TN,38301-7739,(731) 422-1614
1467,539 E CENTRAL AVE,JAMESTOWN,TN,38556-4105,(931) 879-4767
724,630 E BROADWAY BLVD,JEFFERSON CITY,TN,37760-4900,(865) 475-0730
1080,3111 BROWNS MILL RD,JOHNSON CITY,TN,37604-1418,(423) 282-5376
3829,2915 W MARKET ST,JOHNSON CITY,TN,37604-9086,(423) 434-2250
1089,525 KIMBALL CROSSING DR,KIMBALL,TN,37347-5649,(423) 837-6732
599,3200 FORT HENRY DR,KINGSPORT,TN,37664-4022,(423) 392-0600
742,2500 W STONE DR,KINGSPORT,TN,37660-2356,(423) 246-4676
5734,750 LYNN GARDEN DR,KINGSPORT,TN,37660-5608,(423) 408-6159
1318,6777 CLINTON HWY,KNOXVILLE,TN,37912-1020,(865) 938-6760
1319,7550 NORRIS FWY,KNOXVILLE,TN,37938-4221,(865) 922-6031
1320,7420 CHAPMAN HWY,KNOXVILLE,TN,37920-6614,(865) 577-2596
2065,8445 WALBROOK DR,KNOXVILLE,TN,37923-3115,(865) 690-8986
2310,3051 KINZEL WAY,KNOXVILLE,TN,37924-2190,(865) 544-7710
2932,10900 PARKSIDE DR,KNOXVILLE,TN,37934-1958,(865) 777-5171
3959,3120 McKamey Rd,KNOXVILLE,TN,37921-4982,(865) 340-4509
7020,5511 MURFREESBORO RD,LA VERGNE,TN,37086-2736,(615) 984-0066
879,419 HIGHWAY 52 BYP W,LAFAYETTE,TN,37083-1758,(615) 666-2135
683,2130 N LOCUST AVE,LAWRENCEBURG,TN,38464-4456,(931) 762-1094
671,615 S CUMBERLAND ST,LEBANON,TN,37087-5107,(615) 444-0471
741,911 HIGHWAY 321 N,LENOIR CITY,TN,37771-6425,(865) 986-9002
737,1334 N ELLINGTON PKWY,LEWISBURG,TN,37091-2218,(931) 359-9568
684,547 W CHURCH ST,LEXINGTON,TN,38351-1703,(731) 968-5212
695,2232 GALLATIN PIKE,MADISON,TN,37115-2006,(615) 859-7212
5107,109 GALLATIN PIKE N,MADISON,TN,37115-3701,(615) 865-6119
366,4525 HIGHWAY 411,MADISONVILLE,TN,37354-1536,(423) 442-5237
308,2518 HILLSBORO BLVD,MANCHESTER,TN,37355-6535,(931) 728-6000
107,134 COURTRIGHT RD,MARTIN,TN,38237-1606,(731) 587-3843
4223,2410 US HIGHWAY 411 S,MARYVILLE,TN,37801-8629,(865) 982-3660
668,915 N CHANCERY ST STE 100,MC MINNVILLE,TN,37110-1568,(931) 473-0826
1248,7525 WINCHESTER RD,MEMPHIS,TN,38125-2202,(901) 757-1442
1561,3950 AUSTIN PEAY HWY,MEMPHIS,TN,38128-2516,(901) 377-1211
5043,6990 E SHELBY DR,MEMPHIS,TN,38125-3416,(901) 309-7876
5122,2856 HICKORY HILL RD,MEMPHIS,TN,38115-2173,(901) 362-3622
5196,5255 ELVIS PRESLEY BLVD,MEMPHIS,TN,38116-8233,(901) 346-4994
6807,6727 RALEIGH LAGRANGE RD,MEMPHIS,TN,38134-7017,(901) 498-5340
104,15427 S FIRST ST,MILAN,TN,38358-6475,(731) 686-9557
94,8445 US HIGHWAY 51 N,MILLINGTON,TN,38053-1514,(901) 872-6100
685,475 CROCKETT TRACE DR,MORRISTOWN,TN,37813-1902,(423) 587-0495
5467,1997 BUFFALO TRL,MORRISTOWN,TN,37814-4364,(423) 254-6595
6370,4331 W. ANDREW JOHNSON HIGHWAY,MORRISTOWN,TN,37814-0000,(423) 254-6671
4482,300 PLEASANT GROVE RD STE 600,MOUNT JULIET,TN,37122-3792,(615) 758-1121
416,140 JOE B JACKSON PARKWAY,MURFREESBORO,TN,37127-0000,(615) 867-7512
682,2000 OLD FORT PKWY,MURFREESBORO,TN,37129-6907,(615) 893-0175
2757,2012 MEMORIAL BLVD,MURFREESBORO,TN,37129-5119,(615) 995-7092
5057,2900 S RUTHERFORD BLVD,MURFREESBORO,TN,37130-5993,(615) 896-4650
5148,1153 FORTRESS BLVD,MURFREESBORO,TN,37128-5268,(615) 546-6978
5182,2478 NEW SALEM HWY,MURFREESBORO,TN,37128-5248,(615) 546-6969
659,7044 CHARLOTTE PIKE,NASHVILLE,TN,37209-4210,(615) 352-1240
688,5824 NOLENSVILLE PIKE,NASHVILLE,TN,37211-6502,(615) 331-4666
3717,4040 NOLENSVILLE PIKE,NASHVILLE,TN,37211-4516,(615) 831-0133
4435,3458 DICKERSON PIKE,NASHVILLE,TN,37207-2511,(615) 873-2222
5119,5531 EDMONDSON PIKE,NASHVILLE,TN,37211-5808,(615) 834-7771
5616,2421 POWELL AVE,NASHVILLE,TN,37204-4653,(615) 383-3844
1159,432 S BROAD ST,NEW TAZEWELL,TN,37825-7239,(423) 626-6550
678,1075 COSBY HWY,NEWPORT,TN,37821-7372,(423) 623-0429
1194,373 S ILLINOIS AVE,OAK RIDGE,TN,37830-6741,(865) 481-2503
4533,105 CHICKASAW RIDGE DR,OAKLAND,TN,38060-6206,(901) 465-0225
583,19740 ALBERTA ST,ONEIDA,TN,37841-3305,(423) 569-6228
3835,5588 LITTLE DEBBIE PKWY,OOLTEWAH,TN,37363-4356,(423) 238-1036
177,1210 MINERAL WELLS AVE,PARIS,TN,38242-4914,(731) 644-0290
238,1655 W COLLEGE ST,PULASKI,TN,38478-5207,(931) 363-7618
97,628 HIGHWAY 51 N,RIPLEY,TN,38063-5904,(731) 635-8904
676,1102 N GATEWAY AVE,ROCKWOOD,TN,37854-4012,(865) 354-0863
3234,4331 HIGHWAY 66 S,ROGERSVILLE,TN,37857-3145,(423) 272-7707
268,175 JI BELL LN,SAVANNAH,TN,38372-5110,(731) 925-3020
218,1017 MULBERRY AVE,SELMER,TN,38375-3274,(731) 645-7938
578,1414 PARKWAY,SEVIERVILLE,TN,37862-2845,(865) 429-0029
5908,1185 DOLLY PARTON PKWY,SEVIERVILLE,TN,37862-3727,(865) 280-6114
656,1880 N MAIN ST,SHELBYVILLE,TN,37160-2018,(931) 685-0499
4414,515 W BROAD ST,SMITHVILLE,TN,37166-1111,(615) 215-7550
406,570 ENON SPRINGS RD E,SMYRNA,TN,37167-4409,(615) 355-1029
477,9334 DAYTON PIKE,SODDY DAISY,TN,37379-4855,(423) 332-2412
587,202 SAM WALTON DR,SPARTA,TN,38583-8810,(931) 738-3225
3017,4959 MAIN ST,SPRING HILL,TN,37174-2727,(615) 435-2443
304,3360 TOM AUSTIN HWY,SPRINGFIELD,TN,37172-4516,(615) 384-9561
4166,935 HIGHWAY 11 S,SWEETWATER,TN,37874-5730,(423) 337-7636
667,2111 N JACKSON ST,TULLAHOMA,TN,37388-2207,(931) 455-1382
3852,110 ROCKY BOTTOM DR,UNICOI,TN,37692-4030,(423) 743-8780
675,1601 W REELFOOT AVE,UNION CITY,TN,38261-5554,(731) 884-0114
390,275 WALTON DR,WAVERLY,TN,37185-3382,(931) 296-9235
4483,225 WILKINSON LN,WHITE HOUSE,TN,37188-9112,(615) 672-6773
735,2675 DECHERD BLVD,WINCHESTER,TN,37398-1166,(931) 967-0207
535,4350 SOUTHWEST DR,ABILENE,TX,79606-8207,(325) 695-3092
536,1650 STATE HIGHWAY 351,ABILENE,TX,79601-4766,(325) 677-5584
5715,1619 AMBLER AVE,ABILENE,TX,79601-2235,(325) 670-9014
5165,1421 FRONTAGE RD,ALAMO,TX,78516-2313,(956) 782-0034
791,2701 E MAIN ST,ALICE,TX,78332-4194,(361) 668-0441
2918,730 W EXCHANGE PKWY,ALLEN,TX,75013-7078,(972) 649-0356
3574,1520 E EXCHANGE PKWY,ALLEN,TX,75002-4503,(214) 547-8579
462,400 HIGHWAY 35 BYP N,ALVIN,TX,77511-8718,(281) 585-2825
755,4610 S COULTER ST,AMARILLO,TX,79119-6403,(806) 354-9300
822,3700 E INTERSTATE 40,AMARILLO,TX,79103-6127,(806) 342-3030
3383,4215 CANYON DR,AMARILLO,TX,79110-1105,(806) 352-6360
4464,2711 SW 58TH ST,AMARILLO,TX,79110-0000,(806) 513-6506
5216,5730 W AMARILLO BLVD,AMARILLO,TX,79106-4004,(806) 354-9454
7349,7251 ARDEN RD,AMARILLO,TX,79109-6883,(806) 513-6238
7362,2035 SE 34TH AVE,AMARILLO,TX,79118-0000,(806) 513-6390
527,1801 N VELASCO ST,ANGLETON,TX,77515-3014,(979) 849-4604
6963,521 S. CENTRAL EXPRESS WAY,ANNA,TX,75409-0000,(972) 924-3331
458,2501 W WHEELER AVE,ARANSAS PASS,TX,78336-5916,(361) 758-2920
1801,4801 S COOPER ST,ARLINGTON,TX,76017-5928,(817) 465-1000
2977,735 W SUBLETT RD,ARLINGTON,TX,76017-6404,(817) 557-8001
3284,4800 US 287 HIGHWAY,ARLINGTON,TX,76017-2816,(817) 563-1005
3870,5401 PARK SPRINGS BLVD,ARLINGTON,TX,76017-3418,(817) 466-8217
5416,915 E RANDOL MILL RD,ARLINGTON,TX,76011-6017,(817) 274-1040
5613,2121 N COLLINS ST,ARLINGTON,TX,76011-2878,(817) 505-1386
412,1405 E TYLER ST,ATHENS,TX,75751-4613,(903) 677-5400
226,201 LOOP 59,ATLANTA,TX,75551-2011,(903) 796-7916
1129,13201 RANCH ROAD 620 N,AUSTIN,TX,78717-1011,(512) 331-9924
1185,1030 NORWOOD PARK BLVD,AUSTIN,TX,78753-6600,(512) 339-6060
1253,710 E BEN WHITE BLVD,AUSTIN,TX,78704-7404,(512) 443-6601
2133,5017 W HIGHWAY 290,AUSTIN,TX,78735-6703,(512) 892-6086
3569,12900 NO. I-35 SVC RD SB,AUSTIN,TX,78753-1049,(512) 837-9886
4554,2525 W ANDERSON LN,AUSTIN,TX,78757-1180,(512) 354-3702
5317,9300 S INTERSTATE 35 STE B,AUSTIN,TX,78748-1741,(512) 292-6973
5359,721 BOYD RD,AZLE,TX,76020-4811,(817) 270-5716
1118,12300 LAKE JUNE RD,BALCH SPRINGS,TX,75180-1636,(972) 286-8600
1078,2005 HUTCHINS AVE,BALLINGER,TX,76821-4427,(325) 365-5731
1042,488 HIGHWAY 71 W,BASTROP,TX,78602-3731,(512) 321-2288
1405,4600 7TH ST,BAY CITY,TX,77414-8743,(979) 245-0196
194,4900 GARTH RD,BAYTOWN,TX,77521-2257,(281) 421-4859
2439,8700 N HIGHWAY 146,BAYTOWN,TX,77523-7008,(281) 918-3023
651,4145 DOWLEN RD,BEAUMONT,TX,77706-6852,(409) 899-9203
1178,4101 HIGHWAY 121,BEDFORD,TX,76021-3033,(817) 571-7929
3392,2108 BEDFORD RD,BEDFORD,TX,76021-5711,(817) 283-9841
463,502 E FM 351,BEEVILLE,TX,78102-2208,(361) 358-4764
1254,1521 INTERSTATE 35 N,BELLMEAD,TX,76705-2466,(254) 867-8084
1232,2604 N MAIN ST,BELTON,TX,76513-1545,(254) 939-0962
4509,8840 BENBROOK BLVD,BENBROOK,TX,76126-3440,(682) 233-6820
513,201 W MARCY DR,BIG SPRING,TX,79720-6546,(432) 267-3363
1126,1381 S MAIN ST,BOERNE,TX,78006-2846,(830) 249-6195
158,2021 N STATE HIGHWAY 121,BONHAM,TX,75418-2340,(903) 583-9591
1516,1501 ROOSEVELT,BORGER,TX,79007-4408,(806) 274-7257
271,1341 HIGHWAY 287 N,BOWIE,TX,76230-7531,(940) 872-1166
917,2207 S BRIDGE ST,BRADY,TX,76825-7443,(325) 597-3406
438,3800 W WALKER ST,BRECKENRIDGE,TX,76424-3919,(254) 559-6579
321,203 HIGHWAY 290 W,BRENHAM,TX,77833-6801,(979) 836-1118
283,795 TEXAS AVE,BRIDGE CITY,TX,77611-4227,(409) 735-2417
456,3500 W ALTON GLOOR BLVD,BROWNSVILLE,TX,78520-9286,(956) 350-2022
1000,2721 BOCA CHICA BLVD,BROWNSVILLE,TX,78521-3501,(956) 544-0394
4112,2205 RUBEN TORRES SR BLVD,BROWNSVILLE,TX,78526-7439,(956) 509-2077
813,401 W COMMERCE ST,BROWNWOOD,TX,76801-1701,(325) 643-9727
322,2200 BRIARCREST DR,BRYAN,TX,77802-5000,(979) 776-6441
4183,643 N HARVEY MITCHELL Pkwy,BRYAN,TX,77807-1012,(979) 599-5877
4219,690 OLD SAN ANTONIO RD,BUDA,TX,78610-8904,(512) 295-1670
220,951 SW WILSHIRE BLVD,BURLESON,TX,76028-5714,(817) 572-9574
3653,965 NW JOHN JONES DR,BURLESON,TX,76028-0000,(817) 840-4608
567,475 STATE HIGHWAY 36 N,CALDWELL,TX,77836-7552,(979) 567-9807
827,603 E HIGHWAY 243,CANTON,TX,75103-2420,(903) 567-5744
793,1701 N 23RD ST,CANYON,TX,79015-7962,(806) 655-1175
1046,2214 N 1ST ST,CARRIZO SPRINGS,TX,78834-2036,(830) 876-2462
1216,1213 E TRINITY MILLS RD,CARROLLTON,TX,75006-1446,(972) 466-2228
3198,4025 OLD DENTON RD,CARROLLTON,TX,75007-1021,(469) 557-7714
523,4609 NW LOOP 436,CARTHAGE,TX,75633-2205,(903) 693-8881
4102,1151 US HWY 90 E,CASTROVILLE,TX,78009-0000,(830) 538-2110
3204,820 E BELT LINE RD,CEDAR HILL,TX,75104-2215,(469) 526-1214
3285,621 UPTOWN BLVD,CEDAR HILL,TX,75104-3508,(469) 272-7344
2991,201 WALTON WAY,CEDAR PARK,TX,78613-7016,(512) 528-8746
4163,2801 E WHITESTONE BLVD,CEDAR PARK,TX,78613-1200,(512) 690-9340
364,765 HURST STREET,CENTER,TX,75935-3415,(936) 598-6131
900,2801 AVENUE F NW,CHILDRESS,TX,79201-2229,(940) 937-6166
4115,602 CIBOLO VALLEY DR,CIBOLO,TX,78108-3801,(210) 659-9188
228,1616 W HENDERSON ST,CLEBURNE,TX,76033-4123,(817) 645-1575
249,831 HIGHWAY 59 S,CLEVELAND,TX,77327-4873,(281) 592-2654
1150,1815 BROTHERS BLVD,COLLEGE STATION,TX,77845-5413,(979) 693-3095
5614,4904 COLLEYVILLE BLVD,COLLEYVILLE,TX,76034-0000,(817) 770-8334
426,4691 STATE HIGHWAY 121,COLONY,TX,75056-4010,(972) 625-6000
503,2103 MILAM ST,COLUMBUS,TX,78934-3013,(979) 732-8341
240,2701 STATE HIGHWAY 50,COMMERCE,TX,75428-2830,(903) 886-3108
400,1407 N LOOP 336 W,CONROE,TX,77304-3503,(936) 788-5400
4056,10781 TOEPPERWEIN RD,CONVERSE,TX,78109-2561,(210) 672-6813
5144,8315 FM 78,CONVERSE,TX,78109-1043,(210) 666-6066
381,2720 E HIGHWAY 190,COPPERAS COVE,TX,76522-2584,(254) 542-7600
464,3829 US HIGHWAY 77,CORPUS CHRISTI,TX,78410-4525,(361) 387-0599
470,1821 S PADRE ISLAND DR,CORPUS CHRISTI,TX,78416-1398,(361) 854-0943
490,1250 FLOUR BLUFF DR,CORPUS CHRISTI,TX,78418-4463,(361) 937-2643
1494,4109 S STAPLES ST,CORPUS CHRISTI,TX,78411-5500,(361) 994-9010
5898,6101 SARATOGA RD,CORPUS CHRISTI,TX,78414-2470,(361) 445-3240
565,3801 W STATE HIGHWAY 31,CORSICANA,TX,75110-9211,(903) 872-6691
236,1225 E LOOP 304,CROCKETT,TX,75835-1807,(936) 544-5121
522,14215 FM 2100 RD,CROSBY,TX,77532-9152,(281) 328-4836
5707,11700 US HIGHWAY 380,CROSS ROADS,TX,76227-8200,(940) 488-7008
3631,1221 FM 1187,CROWLEY,TX,76036-4370,(682) 233-7834
385,1202 E BROADWAY ST,CUERO,TX,77954-2124,(361) 275-5796
4465,11425 BARKER CYPRESS RD,CYPRESS,TX,77433-5327,(832) 349-7190
5091,26270 NORTHWEST FWY,CYPRESS,TX,77429-1761,(281) 256-8038
7357,8208 BARKER CYPRESS RD,CYPRESS,TX,77433-0000,(281) 500-7990
2105,4122 L B J FWY,DALLAS,TX,75244-5703,(972) 980-2195
2427,9301 FOREST LN,DALLAS,TX,75243-8982,(972) 437-9146
2667,7401 SAMUELL BLVD,DALLAS,TX,75228-6166,(214) 319-2616
2996,18121 MARSH LN,DALLAS,TX,75287-5742,(972) 307-6978
3014,200 SHORT BLVD,DALLAS,TX,75232-1300,(972) 232-6400
3015,2827 S BUCKNER BLVD,DALLAS,TX,75227-6906,(214) 775-0787
3341,2305 N CENTRAL EXPY,DALLAS,TX,75204-3800,(214) 953-0460
3406,15220 MONTFORT RD,DALLAS,TX,75248-6401,(972) 233-0438
5021,2275 GUS THOMASSON RD,DALLAS,TX,75228-3002,(214) 660-9579
5147,1521 N COCKRELL HILL RD,DALLAS,TX,75211-1315,(214) 330-7249
5810,7075 W WHEATLAND RD,DALLAS,TX,75249-1067,(469) 608-6228
5823,6185 RETAIL RD,DALLAS,TX,75231-7807,(972) 656-2196
5889,9410 WEBB CHAPEL RD,DALLAS,TX,75220-6753,(972) 629-0007
8930,15757 COIT RD,DALLAS,TX,75248-4467,(972) 235-0681
421,800 S HIGHWAY 287,DECATUR,TX,76234-1656,(940) 627-5546
447,2410 DODSON AVE,DEL RIO,TX,78840-8009,(830) 774-6034
147,401 N US HIGHWAY 75,DENISON,TX,75020-1526,(903) 465-9744
467,1515 S LOOP 288,DENTON,TX,76205-4729,(940) 484-1717
4104,3930 TEASLEY LN,DENTON,TX,76210-8422,(940) 783-4152
4627,2750 W UNIVERSITY DR,DENTON,TX,76201-1628,(940) 735-3119
3432,951 W BELT LINE RD,DESOTO,TX,75115-3822,(972) 223-1711
7232,108 W PARKERVILLE RD,DESOTO,TX,75115-8074,(469) 643-5012
4103,175 INTERSTATE 35 N,DEVINE,TX,78016-4466,(830) 663-5944
2763,900 N SALINAS BOULEVARD,DONNA,TX,78537-0619,(956) 461-2906
812,2003 S DUMAS AVE,DUMAS,TX,79029-6101,(806) 935-9075
461,496 S BIBB AVE,EAGLE PASS,TX,78852-5063,(830) 773-9403
561,1410 E MAIN ST,EASTLAND,TX,76448-3023,(254) 629-3371
429,1724 W UNIVERSITY DR,EDINBURG,TX,78539-2848,(956) 381-6674
3886,4101 S MCCOLL RD,EDINBURG,TX,78539-8387,(956) 618-2018
5809,2812 S EXPRESSWAY 281,EDINBURG,TX,78542-5215,(956) 252-2047
344,3413 WEST LOOP,EL CAMPO,TX,77437-8020,(979) 543-7286
500,4530 WOODROW BEAN,EL PASO,TX,79924-4408,(915) 757-0151
512,10727 GATEWAY BLVD W,EL PASO,TX,79935-4906,(915) 594-0243
964,9441 ALAMEDA AVE,EL PASO,TX,79907-5601,(915) 860-7171
1015,7555 N MESA ST,EL PASO,TX,79912-3505,(915) 833-1335
2201,7101 GATEWAY BLVD W,EL PASO,TX,79925-5604,(915) 779-6664
2612,1850 N ZARAGOZA RD,EL PASO,TX,79936-7911,(915) 855-6405
3661,1551 N ZARAGOZA RD,EL PASO,TX,79936-7906,(915) 855-6840
3763,12236 MONTANA AVE,EL PASO,TX,79938-4851,(915) 255-4031
4105,101 E. REDD RD,EL PASO,TX,79932-0000,(915) 206-6139
4366,951 N RESLER DR,EL PASO,TX,79912-1452,(915) 875-0124
4415,8115 NORTH LOOP DR,EL PASO,TX,79907-4112,(915) 629-0048
5108,3000 SAUL KLEINFELD DR,EL PASO,TX,79936-0989,(915) 849-7796
5717,7831 PASEO DEL NORTE BLVD,EL PASO,TX,79912-8001,(915) 259-1945
5947,5631 DYER ST,EL PASO,TX,79904-6204,(915) 245-3510
5962,4716 HONDO PASS DR,EL PASO,TX,79904-1421,(915) 245-3573
6587,10840 MARTIN LUTHER KING JR BLVD,EL PASO,TX,79934-4000,(915) 730-6194
6813,3590 N. ZARAGOZA ROAD,EL PASO,TX,79938-0000,(915) 342-9866
7229,1110 SUNLAND PARK DR,EL PASO,TX,79922-1379,(915) 352-2816
3170,1320 W HWY 290,ELGIN,TX,78621-0000,(512) 285-3397
5808,411 SOUTH BROADWAY STREET,ELSA,TX,78543-0000,(956) 262-9407
286,700 E ENNIS AVE,ENNIS,TX,75119-4209,(972) 875-9671
5624,13100 JOSEY LN,FARMERS BRANCH,TX,75234-6351,(972) 656-2282
465,305 10TH STREET,FLORESVILLE,TX,78114-3189,(830) 393-4417
5963,2800 FLOWER MOUND RD,FLOWER MOUND,TX,75022-4819,(972) 538-0355
5191,802 E US HIGHWAY 80,FORNEY,TX,75126-8620,(972) 564-1867
897,2610 W DICKINSON BLVD,FORT STOCKTON,TX,79735-4240,(432) 336-3389
590,6300 OAKMONT BLVD,FORT WORTH,TX,76132-2807,(817) 263-4065
1455,8401 ANDERSON BLVD,FORT WORTH,TX,76120-3857,(817) 276-9021
2834,5336 GOLDEN TRIANGLE BOULEVARD,FORT WORTH,TX,76244-0000,(817) 898-6122
2978,7451 MCCART AVE,FORT WORTH,TX,76133-7296,(817) 361-6032
2979,7401 PARK VISTA BLVD,FORT WORTH,TX,76137-3769,(817) 605-0416
2980,8520 N BEACH ST,FORT WORTH,TX,76244-4918,(817) 514-9793
3043,4536 HERITAGE TRACE PARKWAY,FORT WORTH,TX,76244-0000,(817) 898-6071
3044,2900 RENAISSANCE SQUARE,FORT WORTH,TX,76105-0000,(817) 900-1909
3135,717 W BERRY ST,FORT WORTH,TX,76110-3530,(817) 840-0262
3419,6758 W VICKERY BLVD,FORT WORTH,TX,76116-0000,(817) 732-2130
3773,9500 CLIFFORD ST,FORT WORTH,TX,76108-4403,(817) 367-0042
4165,2245 JACKSBORO HWY,FORT WORTH,TX,76114-2319,(817) 569-6238
5312,3851 AIRPORT FWY,FORT WORTH,TX,76111-5906,(817) 759-2047
5764,2401 AVONDALE HASLET RD,FORT WORTH,TX,76052-3221,(817) 302-1724
7251,7800 SUMMER CREEK DR,FORT WORTH,TX,76123-2093,(682) 312-1994
1154,1435 E MAIN ST,FREDERICKSBURG,TX,78624-5273,(830) 997-2633
1062,150 W EL DORADO BLVD,FRIENDSWOOD,TX,77546-6500,(281) 480-6134
202,16066 STATE HIGHWAY 121,FRISCO,TX,75035-4681,(469) 675-1684
2463,355 STONEBROOK PKWY,FRISCO,TX,75036-3076,(972) 987-8764
3777,12220 FM 423,FRISCO,TX,75033-5222,(469) 362-8542
5866,8555 PRESTON RD,FRISCO,TX,75034-5606,(469) 237-3768
185,1800 LAWRENCE ST,GAINESVILLE,TX,76240-2200,(940) 668-6898
504,6702 SEAWALL BLVD,GALVESTON,TX,77551-9001,(409) 744-8677
1055,5302 N GARLAND AVE,GARLAND,TX,75040-2715,(972) 496-2711
1800,1801 MARKETPLACE DR,GARLAND,TX,75041-5605,(972) 279-8700
2433,101 W BUCKINGHAM RD,GARLAND,TX,75040-4646,(469) 304-3399
2975,3959 BROADWAY BLVD,GARLAND,TX,75043-2586,(972) 926-6215
3224,555 W INTERSTATE 30,GARLAND,TX,75043-5729,(972) 303-5865
4046,1855 S GARLAND AVE,GARLAND,TX,75040-0000,(972) 535-1192
476,2805 S STATE HIGHWAY 36,GATESVILLE,TX,76528-2738,(254) 865-8991
1303,620 S INTERSTATE 35,GEORGETOWN,TX,78628-4157,(512) 863-4855
473,2374 E AUSTIN ST,GIDDINGS,TX,78942-3644,(979) 542-1375
146,1102 US HIGHWAY 271 NORTH,GILMER,TX,75644-5237,(903) 797-6501
290,1114 E SARAH DEWITT DR,GONZALES,TX,78629-2528,(830) 672-7573
353,2121 HMY 16 SOUTH,GRAHAM,TX,76450-0000,(940) 549-7714
371,735 E HIGHWAY 377,GRANBURY,TX,76048-2578,(817) 573-3791
896,2225 W INTERSTATE 20,GRAND PRAIRIE,TX,75052-3926,(972) 660-4200
4503,2650 S STATE HIGHWAY 161,GRAND PRAIRIE,TX,75052-7205,(469) 805-6332
266,1601 W STATE HIGHWAY 114,GRAPEVINE,TX,76051-8651,(817) 421-4770
427,7401 INTERSTATE HIGHWAY 30,GREENVILLE,TX,75402-7121,(903) 455-1792
4453,4715 WESLEY ST,GREENVILLE,TX,75401-5647,(903) 259-5293
1067,1506 N TEXANA ST,HALLETTSVILLE,TX,77964-2036,(361) 798-4377
3319,2020 HEIGHTS DR,HARKER HEIGHTS,TX,76548-2000,(254) 699-1021
6459,960 EAST FM 2410,HARKER HEIGHTS,TX,76548-0000,(254) 892-6990
595,1801 W LINCOLN ST,HARLINGEN,TX,78552-5909,(956) 428-0734
3057,12550 LESLIE RD,HELOTES,TX,78023-4740,(210) 507-4979
951,625 HIGHWAY 290 E,HEMPSTEAD,TX,77445-5568,(979) 826-3344
165,2121 US HIGHWAY 79 S,HENDERSON,TX,75654-4405,(903) 657-5707
3384,300 W 15TH ST,HEREFORD,TX,79045-3051,(806) 364-5712
7156,733 SUN VALLEY BLVD,HEWITT,TX,76643-3535,(254) 340-6614
3286,1035 HICKORY CREEK BLVD,HICKORY CREEK,TX,75065-7552,(940) 321-5363
3567,3000 S JACKSON RD,HIDALGO,TX,78557-0000,(956) 904-4826
4240,3060 JUSTIN RD,HIGHLAND VILLAGE,TX,75077-7047,(972) 317-4951
211,401 COKE AVE,HILLSBORO,TX,76645-2671,(254) 582-2523
443,109 22ND ST,HONDO,TX,78861-2514,(830) 426-4356
3136,13900 HORIZON BLVD,HORIZON CITY,TX,79928-6557,(915) 206-6199
772,3506 HIGHWAY 6 S,HOUSTON,TX,77082-4204,(281) 561-0866
1040,15955 FM 529 RD,HOUSTON,TX,77095-2513,(281) 855-1604
1103,3450 FM 1960 RD W,HOUSTON,TX,77068-3606,(281) 440-4482
1137,13750 EAST FWY,HOUSTON,TX,77015-5929,(713) 453-5018
1279,10411 N FREEWAY 45,HOUSTON,TX,77037-1124,(281) 999-9920
1409,10750 WESTVIEW DR,HOUSTON,TX,77043-5019,(713) 984-2773
2066,2727 DUNVALE RD,HOUSTON,TX,77063-4401,(713) 977-2099
2257,13484 NORTHWEST FWY,HOUSTON,TX,77040-6007,(713) 690-0666
2718,9555 S POST OAK RD,HOUSTON,TX,77096-4339,(713) 551-9148
3296,2700 S KIRKWOOD RD,HOUSTON,TX,77077-6696,(281) 558-5670
3297,12353 FM 1960 RD W,HOUSTON,TX,77065-4993,(832) 912-7320
3302,9460 W SAM HOUSTON PKWY S,HOUSTON,TX,77099-1850,(281) 568-3710
3425,9598 ROWLETT RD,HOUSTON,TX,77075-2414,(832) 386-0103
3452,4810 HIGHWAY 6 N,HOUSTON,TX,77084-2979,(281) 859-0085
3500,5655 E SAM HOUSTON PKWY N,HOUSTON,TX,77015-3250,(713) 450-2222
3509,11755 BEECHNUT ST,HOUSTON,TX,77072-4107,(832) 328-1638
3542,11242 S GESSNER DR,HOUSTON,TX,77071-1910,(713) 771-4740
3584,5405 SOUTH RICE AVENUE,HOUSTON,TX,77081-0000,(713) 860-9242
3640,1118 SILBER RD,HOUSTON,TX,77055-7126,(713) 797-2245
4416,13003 TOMBALL PKWY,HOUSTON,TX,77086-3122,(281) 668-2952
4526,4412 NORTH FWY,HOUSTON,TX,77022-3606,(713) 300-0511
5094,9700 HILLCROFT ST,HOUSTON,TX,77096-3808,(713) 283-7186
5612,2391 S WAYSIDE DR,HOUSTON,TX,77023-3910,(713) 300-3653
5959,111 YALE ST,HOUSTON,TX,77007-3730,(713) 860-0700
3431,2801 E INTERSTATE 20,HUDSON OAKS,TX,76087-8596,(817) 599-7490
744,6626 FM 1960 RD E,HUMBLE,TX,77346-2712,(281) 852-4648
1837,9451 FM 1960 BYPASS,HUMBLE,TX,77338-4035,(281) 540-8838
4298,9235 N SAM HOUSTON PKWY E,HUMBLE,TX,77396-3160,(281) 441-2209
7309,12312 WILL CLAYTON PWY,HUMBLE,TX,77346-0000,(281) 318-2102
285,141 INTERSTATE 45 S,HUNTSVILLE,TX,77340-4243,(936) 293-1066
5080,1732 PRECINCT LINE RD,HURST,TX,76054-3165,(817) 503-7152
7347,720 W PIPELINE RD,HURST,TX,76053-4928,(817) 799-3526
880,4100 W AIRPORT FWY,IRVING,TX,75062-5913,(972) 313-0707
2649,1635 MARKET PLACE BLVD,IRVING,TX,75063-7239,(214) 574-4517
180,1311 S JACKSON ST,JACKSONVILLE,TX,75766-3050,(903) 589-3434
214,800 W GIBSON ST,JASPER,TX,75951-4914,(409) 384-1707
768,1313 N FRY RD,KATY,TX,77449-3343,(281) 579-3373
3226,25108 MARKET PLACE DR,KATY,TX,77494-4430,(281) 644-6404
4468,20903 HIGHLAND KNOLLS DR,KATY,TX,77450-1490,(832) 772-9978
4512,22850 MORTON RANCH RD,KATY,TX,77449-2154,(346) 307-8163
4538,6060 N FRY RD,KATY,TX,77449-1800,(281) 550-4446
4164,300 KINGS FORT PKWY,KAUFMAN,TX,75142-3575,(469) 595-7068
2981,2130 RUFE SNOW DR,KELLER,TX,76248-5632,(817) 427-0413
3298,255 FM 518 RD,KEMAH,TX,77565-3219,(281) 538-9778
524,200 BUSINESS PARK BLVD,KENEDY,TX,78119-2026,(830) 583-9825
508,1216 JUNCTION HWY,KERRVILLE,TX,78028-4906,(830) 895-7900
572,1201 STONE ST,KILGORE,TX,75662-5433,(903) 983-1494
407,1400 LOWES BLVD,KILLEEN,TX,76542-5201,(254) 526-4102
3449,3801 E STAN SCHLUETER LOOP,KILLEEN,TX,76542-6623,(254) 669-6134
3450,2900 CLEAR CREEK ROAD,KILLEEN,TX,76549-0000,(254) 669-6809
6286,3404 WEST STAN SCHLUETER LOOP,KILLEEN,TX,76549-0000,(254) 669-6168
442,1133 GENERAL CAVAZOS BLVD,KINGSVILLE,TX,78363-7142,(361) 595-4146
3579,2165 NORTHPARK DR,KINGWOOD,TX,77339-1746,(281) 358-9992
4130,5754 KYLE PKWY,KYLE,TX,78640-2404,(512) 268-1451
846,1915 W. STATE HWY. 71,LA GRANGE,TX,78945-5291,(979) 968-3423
529,6410 INTERSTATE 45,LA MARQUE,TX,77568-3085,(409) 986-6000
5116,9025 SPENCER HWY,LA PORTE,TX,77571-3870,(281) 479-9636
808,121 HIGHWAY 332 W,LAKE JACKSON,TX,77566-4028,(979) 297-9757
972,6360 LAKE WORTH BLVD,LAKE WORTH,TX,76135-3604,(817) 237-0400
1073,1710 CENTRAL TEXAS EXPY,LAMPASAS,TX,76550-3421,(512) 556-8217
471,150 N INTERSTATE 35 E,LANCASTER,TX,75146-1844,(972) 223-9791
7224,350 N BLUEGROVE RD,LANCASTER,TX,75146-0000,(214) 459-9928
554,5610 SAN BERNARDO AVE,LAREDO,TX,78041-3009,(956) 718-2441
3518,2320 BOB BULLOCK LOOP,LAREDO,TX,78043-9772,(956) 791-3303
3623,4401 HIGHWAY 83 SOUTH,LAREDO,TX,78046-8677,(956) 727-0492
5713,2615 NE BOB BULLOCK LOOP,LAREDO,TX,78045-6785,(956) 231-5575
4618,2625 W MAIN ST,LEAGUE CITY,TX,77573-1813,(281) 724-6750
5388,1701 W FM 646 RD,LEAGUE CITY,TX,77573-4968,(281) 337-9700
1051,407 E STATE ROAD 114,LEVELLAND,TX,79336-2629,(806) 894-2993
217,801 W MAIN ST,LEWISVILLE,TX,75067-3556,(972) 436-3099
3287,1515 JUSTIN RD,LEWISVILLE,TX,75077-2128,(972) 966-6215
5092,190 E ROUND GROVE RD,LEWISVILLE,TX,75067-8301,(972) 315-3398
1186,PO BOX 10046,LIBERTY,TX,77575-7546,(936) 336-5601
3764,105 CENTENNIAL BLVD,LINDALE,TX,75771-8800,(903) 882-0740
275,1620 W CHURCH ST,LIVINGSTON,TX,77351-9043,(936) 327-6370
292,1904 S COLORADO ST,LOCKHART,TX,78644-3938,(512) 398-2333
398,515 E LOOP 281,LONGVIEW,TX,75605-5001,(903) 663-4446
399,2440 GILMER RD,LONGVIEW,TX,75604-2134,(903) 297-1121
3828,4006 ESTES PKWY,LONGVIEW,TX,75603-1712,(903) 236-0947
4114,3812 GILMER RD,LONGVIEW,TX,75604-0000,(903) 475-0475
2765,1004 W OCEAN BOULEVARD,LOS FRESNOS,TX,78566-3666,(956) 233-1742
861,4215 S LOOP 289,LUBBOCK,TX,79423-1100,(806) 793-2091
945,702 W LOOP 289,LUBBOCK,TX,79416-4200,(806) 793-9686
3826,1911 MARSHA SHARP FWY,LUBBOCK,TX,79415-4036,(806) 747-3454
4299,6315 82ND ST,LUBBOCK,TX,79424-3681,(806) 698-6394
5702,9809 UNIVERSITY AVE,LUBBOCK,TX,79423-5301,(806) 401-0423
6898,11415 QUAKER AVE,LUBBOCK,TX,79424-7693,(806) 392-9615
5672,2662 W LUCAS RD,LUCAS,TX,75002-7513,(469) 675-8801
140,2500 DANIEL MCCALL DR,LUFKIN,TX,75904-7129,(936) 639-9600
384,100 N LHS DR,LUMBERTON,TX,77657-8619,(409) 755-1963
516,PO BOX 5005,MABANK,TX,75147-5000,(903) 887-4180
446,1620 E MAIN ST,MADISONVILLE,TX,77864-2208,(936) 348-3715
3169,11923 US HIGHWAY 290 E,MANOR,TX,78653-4321,(512) 651-9100
284,930 N WALNUT CREEK DR STE 800,MANSFIELD,TX,76063-8021,(817) 473-1189
2397,2951 MATLOCK RD,MANSFIELD,TX,76063-5020,(817) 453-5616
781,PO BOX 1970,MARBLE FALLS,TX,78654-2681,(830) 693-4461
320,PO BOX 868,MARLIN,TX,76661-0868,(254) 883-5556
918,1701 E END BLVD N,MARSHALL,TX,75670-0713,(903) 938-0072
397,1200 E JACKSON AVE,MCALLEN,TX,78503-1605,(956) 686-4311
452,2800 W NOLANA AVE,MCALLEN,TX,78504-4596,(956) 687-8285
6098,800 EAST NOLANA AVE,MCALLEN,TX,78501-0000,(956) 800-6080
6786,5700 N 23RD STREET,MCALLEN,TX,78504-0000,(956) 800-6852
206,2041 N REDBUD BLVD,MCKINNEY,TX,75069-8214,(972) 542-9585
5211,5001 MCKINNEY RANCH PKWY,MCKINNEY,TX,75070-8601,(972) 529-5046
6966,3400 VIRGINIA PKWY,MCKINNEY,TX,75071-3405,(214) 250-5004
5311,1721 NORT CUSTER,MCKINNEY ( NW ),TX,75070-0000,(972) 548-7270
789,200 US HIGHWAY 80 E,MESQUITE,TX,75149-1656,(972) 329-0191
2976,915 N TOWN EAST BLVD,MESQUITE,TX,75150-4743,(972) 613-4253
5824,1951 MILITARY PKWY,MESQUITE,TX,75149-3629,(469) 357-5454
248,1406 E MILAM ST,MEXIA,TX,76667-2500,(254) 562-3831
608,4517 N MIDLAND DR,MIDLAND,TX,79707-3325,(432) 697-0871
3645,200 W INTERSTATE 20,MIDLAND,TX,79701-2030,(432) 684-3910
4279,400 N HIGHWAY 67,MIDLOTHIAN,TX,76065-8000,(972) 775-6755
251,135 NE LOOP 564,MINEOLA,TX,75773-2913,(903) 569-0180
804,601 FM 1821,MINERAL WELLS,TX,76067-9119,(940) 325-7808
395,2410 E EXPRESSWAY 83,MISSION,TX,78572-8101,(956) 580-3393
6850,1006 N BRYAN ROAD,MISSION,TX,78572-0000,(956) 391-3418
2505,5501 HIGHWAY 6,MISSOURI CITY,TX,77459-4190,(281) 403-5000
5449,9929 HWY 6,MISSOURI CITY,TX,77459-4149,(281) 835-0001
3591,18700 HIGHWAY 105 W,MONTGOMERY,TX,77356-5625,(936) 582-1551
131,2311 S JEFFERSON AVE,MOUNT PLEASANT,TX,75455-6011,(903) 572-0018
2973,115 WEST FM 544,MURPHY,TX,75094-4580,(972) 633-0257
163,4810 NORTH ST,NACOGDOCHES,TX,75965-1876,(936) 560-6969
4674,1030 N UNIVERSITY DR,NACOGDOCHES,TX,75961-4208,(936) 585-7811
293,1712 E WASHINGTON AVE,NAVASOTA,TX,77868-3247,(936) 825-7541
181,800 JAMES BOWIE DR,NEW BOSTON,TX,75570-2334,(903) 628-5557
865,1209 S INTERSTATE 35,NEW BRAUNFELS,TX,78130-5918,(830) 629-0129
6579,20310 US HIGHWAY 59,NEW CANEY,TX,77357-8266,(281) 306-7101
807,6401 NE LOOP 820,NORTH RICHLAND HILLS,TX,76180-6041,(817) 577-2100
3274,9101 N TARRANT PKWY,NORTH RICHLAND HILLS,TX,76182-8655,(817) 605-1717
537,4210 JOHN BEN SHEPPERD PKWY,ODESSA,TX,79762-8153,(432) 363-9663
2891,2450 NW LOOP 338,ODESSA,TX,79763-3201,(432) 332-6016
345,2223 S LOOP 256,PALESTINE,TX,75801-4701,(903) 729-4441
3320,215 E MILE 3 RD,PALMHURST,TX,78573-6677,(956) 519-8453
600,2801 CHARLES ST,PAMPA,TX,79065-2824,(806) 665-0727
3594,2610 W PIONEER PKWY,PANTEGO,TX,76013-5904,(817) 303-4468
148,3855 LAMAR AVE,PARIS,TX,75462-5210,(903) 785-7168
752,5200 FAIRMONT PKWY,PASADENA,TX,77505-3802,(281) 998-1077
2724,1107 SHAVER ST,PASADENA,TX,77506-4405,(713) 534-6660
872,1919 N MAIN ST,PEARLAND,TX,77581-3305,(281) 485-0877
3510,1710 BROADWAY ST,PEARLAND,TX,77581-5604,(281) 482-5016
3572,10505 BROADWAY ST,PEARLAND,TX,77584-8076,(713) 436-2899
7361,12631 BROADWAY STREET,PEARLAND,TX,77584-0000,(713) 570-7925
478,819 N OAK ST,PEARSALL,TX,78061-3422,(830) 334-9451
898,1903 S CEDAR ST,PECOS,TX,79772-6204,(432) 445-4231
4508,1705 EXPRESSWAY 83,PENITAS,TX,78576-8333,(956) 580-6840
5479,1548 FM 685,PFLUGERVILLE,TX,78660-3576,(512) 252-0112
927,1501 N INTERSTATE 27,PLAINVIEW,TX,79072-3916,(806) 293-4278
1117,6001 N CENTRAL EXPY,PLANO,TX,75023-4702,(972) 422-3000
2086,1700 DALLAS PKWY,PLANO,TX,75093-4519,(972) 931-9846
2883,8801 OHIO DR,PLANO,TX,75024-2268,(972) 731-9576
2926,6000 COIT RD,PLANO,TX,75023-5903,(972) 612-9637
2995,8040 INDEPENDENCE PKWY,PLANO,TX,75025-4059,(972) 396-6401
3199,3513 E PARK BLVD,PLANO,TX,75074-3112,(469) 304-3143
3482,425 COIT RD,PLANO,TX,75075-5709,(972) 599-1650
4182,3312 PRESTON RD,PLANO,TX,75093-7404,(469) 304-3375
5657,3100 CUSTER RD,PLANO,TX,75075-2060,(972) 244-6714
757,2151 W OAKLAWN RD,PLEASANTON,TX,78064-4604,(830) 569-3879
408,8585 MEMORIAL BLVD,PORT ARTHUR,TX,77640-7012,(409) 727-4667
449,4999 N TWIN CITY HWY,PORT ARTHUR,TX,77642-5827,(409) 962-7858
413,1401 STATE HIGHWAY 100,PORT ISABEL,TX,78578-2480,(956) 943-1387
1098,400 TINEY BROWNING BLVD,PORT LAVACA,TX,77979-5215,(361) 552-4116
297,23561 HIGHWAY 59,PORTER,TX,77365-4991,(281) 354-3400
5460,2000 US HIGHWAY 181,PORTLAND,TX,78374-4172,(361) 643-5342
7178,701 W PRINCETON DR,PRINCETON,TX,75407-9002,(972) 736-6491
6300,500 RICHLAND BLVD,PROSPER,TX,75078-7275,(972) 347-9467
4215,8801 STATE HIGHWAY 34 S,QUINLAN,TX,75474-9434,(903) 356-1000
3433,100 S RYAN DR,RED OAK,TX,75154-4214,(972) 515-2062
2974,1501 BUCKINGHAM RD,RICHARDSON,TX,75081-5304,(972) 235-9389
6578,6604 BOULEVARD 26,RICHLAND HILLS,TX,76180-1520,(682) 757-9057
546,5330 FM 1640 RD,RICHMOND,TX,77469-5435,(281) 232-8394
3827,5660 W GRAND PKWY S,RICHMOND,TX,77406-5880,(832) 595-0322
4111,26824 FM 1093 RD,RICHMOND,TX,77406-1710,(346) 307-8691
1958,4534 E US HIGHWAY 83,RIO GRANDE CITY,TX,78582-6308,(956) 487-0090
5247,1228 N HIGHWAY 377,ROANOKE,TX,76262-9122,(682) 831-9338
280,709 W US HIGHWAY 79,ROCKDALE,TX,76567-5325,(512) 446-5851
440,2401 HIGHWAY 35 N,ROCKPORT,TX,78382-5704,(361) 729-9277
259,782 E INTERSTATE 30,ROCKWALL,TX,75087-5503,(972) 771-8309
3530,850 W RUSK ST,ROCKWALL,TX,75087-3421,(972) 722-1217
475,2701 S INTERSTATE 35,ROUND ROCK,TX,78664-7320,(512) 310-9024
5480,4700 E PALM VALLEY BLVD,ROUND ROCK,TX,78665-2580,(512) 218-1018
3225,2501 LAKEVIEW PKWY,ROWLETT,TX,75088-3350,(214) 607-9839
7240,8800 LAKEVIEW PARKWAY,ROWLETT,TX,75088-0000,(972) 202-5635
5987,494 W INTERSTATE 30,ROYSE CITY,TX,75189-7527,(972) 635-2728
5673,8015 WOODBRIDGE PKWY,SACHSE,TX,75048-6613,(469) 440-0290
6851,6750 MURPHY ROAD,SACHSE,TX,75048-0000,(469) 366-3942
5316,1401 N SAGINAW BLVD,SAGINAW,TX,76179-5096,(817) 306-1468
601,5501 SHERWOOD WAY,SAN ANGELO,TX,76904-9738,(325) 949-9201
1249,610 W 29TH ST,SAN ANGELO,TX,76903-2828,(325) 655-4949
7220,1852 SHERWOOD WAY,SAN ANGELO,TX,76901-3960,(325) 276-6945
7281,3440 S BRYANT BLVD,SAN ANGELO,TX,76903-9308,(325) 276-6599
7311,5154 KNICKERBOCKER RD,SAN ANGELO,TX,76904-7714,(325) 276-6621
765,16503 NACOGDOCHES RD,SAN ANTONIO,TX,78247-1010,(210) 646-6077
999,7239 SW LOOP 410,SAN ANTONIO,TX,78242-0000,(210) 247-5905
1198,1515 N LOOP 1604 E,SAN ANTONIO,TX,78232-1431,(210) 491-0291
1235,5025 NW LOOP 410,SAN ANTONIO,TX,78229-5313,(210) 523-1091
1313,1200 SE MILITARY DR,SAN ANTONIO,TX,78214-2851,(210) 921-0800
1347,1430 AUSTIN HWY,SAN ANTONIO,TX,78209-4338,(210) 637-1700
1803,4331 THOUSAND OAKS DR,SAN ANTONIO,TX,78217-2101,(210) 591-4977
2239,8923 W MILITARY DR,SAN ANTONIO,TX,78245-2102,(210) 675-5092
2404,8500 JONES MALTSBERGER RD,SAN ANTONIO,TX,78216-5913,(210) 377-1899
2599,5555 DE ZAVALA RD,SAN ANTONIO,TX,78249-1735,(210) 558-2007
2769,5626 WALZEM RD,SAN ANTONIO,TX,78218-2105,(210) 507-0650
2835,9006 GUILBEAU ROAD,SAN ANTONIO,TX,78250-0000,(210) 536-3160
2864,6703 W LOOP 1604 N,SAN ANTONIO,TX,78254-9539,(210) 688-3626
3058,918 BANDERA RD,SAN ANTONIO,TX,78228-4923,(210) 536-0576
3106,8538 INTERSTATE HWY 35 S,SAN ANTONIO,TX,78211-4000,(210) 810-3199
3107,24403 W INTERSTATE 10,SAN ANTONIO,TX,78257-1447,(210) 507-0041
3112,4096 N FOSTER RD,SAN ANTONIO,TX,78244-1874,(210) 507-4958
3279,2100 SE LOOP 410,SAN ANTONIO,TX,78220-4927,(210) 648-7194
3888,11210 POTRANCO RD,SAN ANTONIO,TX,78253-5844,(210) 679-7184
4131,9427 CULEBRA RD,SAN ANTONIO,TX,78251-3599,(210) 526-6000
4162,12639 BLANCO RD,SAN ANTONIO,TX,78216-8103,(210) 591-6282
5145,1603 VANCE JACKSON RD,SAN ANTONIO,TX,78213-4470,(210) 738-8218
5146,8030 BANDERA RD,SAN ANTONIO,TX,78250-5130,(210) 520-6517
5224,4226 DE ZAVALA RD,SAN ANTONIO,TX,78249-3082,(210) 774-2734
5226,9526 W MILITARY DR,SAN ANTONIO,TX,78251-1905,(210) 536-2088
5245,3302 SE MILITARY DR,SAN ANTONIO,TX,78223-3980,(210) 337-1946
5290,1515 S ELLISON DR,SAN ANTONIO,TX,78245-0000,(210) 276-2012
5490,9005 FM 1560 N,SAN ANTONIO,TX,78254-9643,(210) 507-0834
1296,1126 W US HIGHWAY 77,SAN BENITO,TX,78586-4337,(956) 399-1373
404,1015 HIGHWAY 80,SAN MARCOS,TX,78666-8111,(512) 353-0617
3391,6102 FM 3009,SCHERTZ,TX,78154-3205,(210) 651-8217
5288,220 N HIGHWAY 175,SEAGOVILLE,TX,75159-1841,(972) 287-3917
437,310 OVERCREEK WAY,SEALY,TX,77474-3799,(979) 627-7758
901,550 SOUTH 123 BYPASS,SEGUIN,TX,78155-9752,(830) 372-5993
626,PO BOX 1807,SEMINOLE,TX,79360-1807,(432) 758-9225
947,401 E US HIGHWAY 82,SHERMAN,TX,75092-2566,(903) 813-4825
3521,2210 N FM 1417,SHERMAN,TX,75092-3103,(903) 209-4908
383,1100 N HIGHWAY 96,SILSBEE,TX,77656-0000,(409) 385-0782
1272,5110 COLLEGE AVE,SNYDER,TX,79549-6112,(325) 573-1967
5960,10301 ALAMEDA AVE,SOCORRO,TX,79927-1605,(915) 245-3488
602,1025 SAWDUST RD,SPRING,TX,77380-0000,(281) 298-4306
849,155 LOUETTA XING,SPRING,TX,77373-3007,(281) 651-9963
3585,2901 RILEY FUZZEL RD,SPRING,TX,77386-4489,(832) 823-7815
5287,21150 KUYKENDAHL RD,SPRING,TX,77379-3300,(281) 288-6437
5353,24809 ALDINE WESTFIELD RD,SPRING,TX,77373-5927,(281) 203-3323
3056,305 SINGING OAKS,SPRING BRANCH,TX,78070-6505,(830) 438-4380
915,11210 W AIRPORT BLVD,STAFFORD,TX,77477-3000,(281) 933-7800
1257,2614 N SWENSON STREET,STAMFORD,TX,79553-2953,(325) 773-2775
610,2765 W WASHINGTON ST,STEPHENVILLE,TX,76401-3740,(254) 965-7766
2993,345 HIGHWAY 6,SUGAR LAND,TX,77478-4933,(281) 340-0900
4466,13322 WEST AIRPORT BLVD,SUGAR LAND,TX,77478-0000,(832) 935-6345
417,1750 S BROADWAY ST,SULPHUR SPRINGS,TX,75482-4902,(903) 439-3144
3381,407 NE GEORGIA AVE,SWEETWATER,TX,79556-8238,(325) 236-9562
77,3701 N MAIN ST,TAYLOR,TX,76574-4975,(512) 352-5505
746,3401 S 31ST ST,TEMPLE,TX,76502-1902,(254) 778-9235
6929,6801 W ADAMS AVE,TEMPLE,TX,76502-0005,(254) 598-7593
265,1900 W MOORE AVE,TERRELL,TX,75160-2346,(972) 563-7638
2123,4000 NEW BOSTON RD,TEXARKANA,TX,75501-2819,(903) 838-4007
4367,3302 SUMMERHILL RD,TEXARKANA,TX,75503-3905,(903) 716-7007
4371,3520 RICHMOND RD,TEXARKANA,TX,75503-0705,(903) 716-7109
3213,3040 COLLEGE PARK DR,THE WOODLANDS,TX,77384-8002,(936) 321-9922
351,25800 KUYKENDAHL RD,TOMBALL,TX,77375-2892,(832) 761-8499
703,27650 STATE HIGHWAY 249,TOMBALL,TX,77375-6518,(281) 351-2616
5045,22605 STATE HIGHWAY 249,TOMBALL,TX,77375-8239,(281) 374-9449
1022,3820 STATE HIGHWAY 64 W,TYLER,TX,75704-6924,(903) 597-2888
1044,5050 TROUP HWY,TYLER,TX,75707-1916,(903) 534-1333
2688,6801 S BROADWAY AVE,TYLER,TX,75703-4733,(903) 581-4296
4193,1900 E SE LOOP 323,TYLER,TX,75703-0000,(903) 508-6121
4605,5976 OLD JACKSONVILLE HWY,TYLER,TX,75703-0582,(903) 405-6213
5700,2151 FRANKSTON HWY,TYLER,TX,75701-3808,(903) 405-6197
6467,450 S SOUTHEAST LOOP 323,TYLER,TX,75702-8646,(903) 405-6391
4055,510 KITTY HAWK RD,UNIVERSAL CITY,TX,78148-3961,(210) 536-8548
782,3100 E MAIN ST,UVALDE,TX,78801-6235,(830) 278-9117
3229,3800 US HIGHWAY 287 W,VERNON,TX,76384-3280,(940) 552-8029
330,9002 N NAVARRO ST,VICTORIA,TX,77904-1431,(361) 573-0041
4194,4001 HOUSTON HIGHWAY,VICTORIA,TX,77901-0000,(361) 827-7272
457,1360 N MAIN ST,VIDOR,TX,77662-3727,(409) 769-6233
939,4320 FRANKLIN AVE,WACO,TX,76710-6906,(254) 751-0464
5389,600 HEWITT DR,WACO,TX,76712-6654,(254) 666-9021
4373,200 WAKE VILLAGE RD,WAKE VILLAGE,TX,75501-6227,(903) 716-7175
260,1200 N HIGHWAY 77,WAXAHACHIE,TX,75165-5114,(972) 937-3460
963,1836 S MAIN ST,WEATHERFORD,TX,76086-5506,(817) 594-9193
1041,1310 N TEXAS BLVD,WESLACO,TX,78599-0000,(956) 968-6357
6159,1600 S TEXAS BLVD,WESLACO,TX,78596-0000,(956) 854-2566
482,301 N COLUMBIA DR,WEST COLUMBIA,TX,77486-2520,(979) 345-3147
777,3115 EDGAR BROWN DR,WEST ORANGE,TX,77630-5347,(409) 883-5244
940,6770 WESTWORTH BLVD,WESTWORTH VILLAGE,TX,76114-4002,(817) 570-9538
5246,10388 US 59 HWY,WHARTON,TX,77488-7217,(979) 532-3986
414,5131 GREENBRIAR RD,WICHITA FALLS,TX,76302-4151,(940) 397-9650
420,2700 CENTRAL FWY,WICHITA FALLS,TX,76306-2843,(940) 851-0629
1148,3130 LAWRENCE RD,WICHITA FALLS,TX,76308-1607,(940) 696-3393
3390,10001 WOODLANDS PKWY,WOODLANDS,TX,77382-2883,(281) 419-0162
288,115 COBB MILL RD,WOODVILLE,TX,75979-5537,(409) 283-8248
5210,2050 N HIGHWAY 78,WYLIE,TX,75098-6043,(972) 429-3526
6078,1400 MCCREARY ROAD,WYLIE,TX,75098-0000,(972) 202-4007
2511,949 W GRASSLAND DR,AMERICAN FORK,UT,84003-2753,(801) 492-1102
1438,1330 S PROVIDENCE CENTER DR,CEDAR CITY,UT,84720-3956,(435) 586-0172
4689,4689 W CEDAR HILLS DR,CEDAR HILLS,UT,84062-8093,(801) 756-2372
3366,221 W PARRISH LN,CENTERVILLE,UT,84014-1829,(801) 294-0587
5234,1632 N 2000 W,CLINTON,UT,84015-8367,(801) 779-3165
5110,1360 DRAPER PKWY,DRAPER,UT,84020-8567,(801) 816-0838
2794,777 N MAIN ST,EPHRAIM,UT,84627-1165,(435) 283-8189
2921,534 N HARRISVILLE RD,HARRISVILLE,UT,84404-3532,(801) 737-0092
4696,1274 S US HIGHWAY 189,HEBER CITY,UT,84032-5512,(435) 709-3015
7168,5056 W 13400 S,HERRIMAN,UT,84096-6600,(801) 981-1675
4678,180 N 3400 W,HURRICANE,UT,84737-3031,(435) 635-6945
1699,745 W HILL FIELD RD,LAYTON,UT,84041-4602,(801) 546-1992
5205,1356 E HIGHWAY 193,LAYTON,UT,84040-8533,(801) 771-2987
5270,585 N STATE ST,LINDON,UT,84042-1339,(801) 785-7683
4272,1150 S 100 W,LOGAN,UT,84321-5573,(435) 753-2111
4706,3555 S 8400 W,MAGNA,UT,84044-3458,(801) 601-2833
2207,7250 UNION PARK AVE,MIDVALE,UT,84047-1840,(801) 255-0224
1888,1550 N MAIN ST,NORTH LOGAN,UT,84341-1918,(435) 753-0880
3789,1959 WALL AVE,OGDEN,UT,84401-0313,(801) 917-1026
1768,1355 SANDHILL RD,OREM,UT,84058-7307,(801) 221-0600
1827,6545 LANDMARK DR,PARK CITY,UT,84098-5990,(435) 647-9909
5167,1052 TURF FARM RD,PAYSON,UT,84651-1645,(801) 465-8246
3454,1200 S COMMERCE WAY,PERRY,UT,84302-3117,(435) 734-9660
4700,1707 WEST STATE STREET,PLEASANT GROVE,UT,84062-0000,(801) 216-0001
1573,255 S HIGHWAY 55,PRICE,UT,84501-3533,(435) 637-6712
4100,2255 N UNIVERSITY PKWY,PROVO,UT,84604-1588,(385) 219-3070
5168,10 E 1300 S,RICHFIELD,UT,84701-3122,(435) 893-8164
1708,4848 S 900 W,RIVERDALE,UT,84405-3726,(801) 627-0066
3620,13502 HAMILTON VIEW RD,RIVERTON,UT,84065-6059,(801) 446-2981
7043,1202 WEST 12600 SOUTH,RIVERTON,UT,84065-0000,(801) 999-2794
3589,350 HOPE AVE,SALT LAKE CITY,UT,84115-5116,(801) 484-7311
4208,2705 E PARLEYS WAY,SALT LAKE CITY,UT,84109-1619,(385) 313-3942
5350,4627 S 900 E,SALT LAKE CITY,UT,84117-4879,(801) 261-3695
5235,9151 S QUARRY BEND DR,SANDY,UT,84094-7701,(801) 352-4200
4438,136 W STATE ROAD 73,SARATOGA SPRINGS,UT,84045-2900,(801) 766-4272
2307,11328 S JORDAN GTWY,SOUTH JORDAN,UT,84095-4112,(801) 553-2266
5763,3590 W. SOUTH JORDAN PKWY,SOUTH JORDAN,UT,84095-8916,(801) 601-3098
5206,1710 E SKYLINE DR,SOUTH OGDEN,UT,84405-5202,(801) 479-0366
3988,898 S 2550 E,SPANISH FORK,UT,84660-6190,(801) 504-9612
4068,1206 N CANYON CREEK PKWY,SPANISH FORK,UT,84660-1319,(801) 804-3505
3208,660 S 1750 W,SPRINGVILLE,UT,84663-3071,(801) 489-6293
3220,2610 PIONEER RD,ST GEORGE,UT,84790-7442,(435) 674-0459
3848,2228 W 1700 S,SYRACUSE,UT,84075-7126,(801) 775-9688
1686,5469 S REDWOOD RD,TAYLORSVILLE,UT,84123-5318,(801) 264-9666
1440,99 W 1280 N,TOOELE,UT,84074-9093,(435) 882-0180
1572,1851 W HIGHWAY 40,VERNAL,UT,84078-4125,(435) 789-9784
1439,625 W TELEGRAPH ST,WASHINGTON,UT,84780-1541,(435) 628-2802
3232,7671 S 3800 W,WEST JORDAN,UT,84084-4316,(801) 282-4066
3568,3180 S 5600 W,WEST VALLEY CITY,UT,84120-1300,(801) 966-2986
5109,4570 S 4000 W,WEST VALLEY CITY,UT,84120-6232,(801) 969-1105
5233,5675 W 6200 S,WEST VALLEY CITY,UT,84118-7915,(801) 965-0125
154,16032 FIFTEEN MILE BOULEVARD,ABINGDON,VA,24211-0000,(276) 619-4843
2194,5885 KINGSTOWNE BLVD,ALEXANDRIA,VA,22315-5702,(703) 924-8800
2258,7910 RICHMOND HWY,ALEXANDRIA,VA,22306-7826,(703) 799-8815
5753,6303 RICHMOND HWY,ALEXANDRIA,VA,22306-6410,(703) 253-9901
3768,125 CLARION RD,ALTAVISTA,VA,24517-1164,(434) 309-2245
4636,505 OAKVILLE RD,APPOMATTOX,VA,24522-8361,(434) 352-6066
2795,145 HILL CARTER PKWY,ASHLAND,VA,23005-2327,(804) 798-2511
3880,9714 SLIDING HILL RD,ASHLAND,VA,23005-0000,(804) 537-3003
1399,1126 E LYNCHBURG SALEM TPKE,BEDFORD,VA,24523-3446,(540) 586-6176
2645,1451 S MAIN ST,BLACKSTONE,VA,23824-2626,(434) 292-5898
1763,4001 COLLEGE AVE,BLUEFIELD,VA,24605-2043,(276) 322-3144
2089,13245 LEE HWY,BRISTOL,VA,24202-5963,(276) 466-0290
5227,6000 BURKE COMMONS RD,BURKE,VA,22015-2805,(703) 250-9280
5969,4368 CHANTILLY SHOPPING CENTER DR,CHANTILLY,VA,20151-4016,(571) 392-3081
1780,975 HILTON HEIGHTS RD,CHARLOTTESVILLE,VA,22901-8394,(434) 973-1412
1682,2448 CHESAPEAKE SQUARE RING RD,CHESAPEAKE,VA,23321-2173,(757) 488-6098
1841,1521 SAMS CIR,CHESAPEAKE,VA,23320-4694,(757) 436-6055
3299,475 KEMPSVILLE ROAD,CHESAPEAKE,VA,23320-3721,(757) 447-9223
3330,673 CEDAR ROAD,CHESAPEAKE,VA,23322-0000,(757) 447-5798
3644,201 HILLCREST PKWY,CHESAPEAKE,VA,23322-2485,(757) 421-3689
5253,632 GRASSFIELD PKWY,CHESAPEAKE,VA,23322-7449,(757) 312-8309
1524,12000 IRON BRIDGE RD,CHESTER,VA,23831-1459,(804) 768-0060
4476,14501 HANCOCK VILLAGE ST,CHESTERFIELD,VA,23832-2776,(804) 739-2119
1292,2400 N FRANKLIN ST,CHRISTIANSBURG,VA,24073-1088,(540) 381-3705
1424,671 SOUTHPARK BLVD,COLONIAL HEIGHTS,VA,23834-3617,(804) 526-0844
2662,313 THACKER AVE,COVINGTON,VA,24426-2264,(540) 962-6670
2136,801 JAMES MADISON HWY,CULPEPER,VA,22701-2405,(540) 825-2723
1465,515 MOUNT CROSS RD,DANVILLE,VA,24540-4065,(434) 799-6902
5829,211 NOR DAN DR UNIT 1010,DANVILLE,VA,24540-1657,(434) 441-4253
1652,5225 ALEXANDER RD,DUBLIN,VA,24084-3657,(540) 674-5385
3639,24635 DULLES LANDING DR,DULLES,VA,20166-2614,(571) 367-3036
3588,17041 RICHMOND HWY,DUMFRIES,VA,22026-2129,(703) 221-4116
2805,303 MARKET DR,EMPORIA,VA,23847-1203,(434) 336-9269
2015,13059 FAIR LAKES PARKWAY,FAIRFAX,VA,22033-0000,(703) 631-9450
5880,11181 LEE HWY,FAIRFAX,VA,22030-5004,(703) 995-5061
2762,7373 PEPPERS FERRY BLVD,FAIRLAWN,VA,24141-8857,(540) 731-3378
1486,1800 PEERY DR,FARMVILLE,VA,23901-2377,(434) 392-5334
3603,16807 FOREST RD,FOREST,VA,24551-0000,(434) 209-6041
2705,1500 ARMORY DR,FRANKLIN,VA,23851-2452,(757) 562-6776
1833,1800 CARL D SILVER PKWY,FREDERICKSBURG,VA,22401-4960,(540) 786-2090
2520,125 WASHINGTON SQUARE PLZ,FREDERICKSBURG,VA,22405-3235,(540) 899-8890
4258,11 VILLAGE PKWY,FREDERICKSBURG,VA,22406-8207,(540) 752-2125
5343,10001 SOUTHPOINT PKWY,FREDERICKSBURG,VA,22407-2700,(540) 834-4142
5105,10 RIVERTON COMMONS DR,FRONT ROYAL,VA,22630-6718,(540) 635-4140
1023,1140 E STUART DR,GALAX,VA,24333-2630,(276) 236-7113
1523,11400 W BROAD ST RD,GLEN ALLEN,VA,23060-5821,(804) 360-9777
1759,6819 WALTON LN,GLOUCESTER,VA,23061-6113,(804) 694-0110
4682,164 CAMP CREEK PKWY,GORDONSVILLE,VA,22942-6878,(540) 832-1259
3303,1179 RIVERVIEW ST,GRUNDY,VA,24614-9481,(276) 244-3007
1631,1900 CUNNINGHAM DR,HAMPTON,VA,23666-4260,(757) 826-6377
3156,117 MARKETPLACE DRIVE,HAMPTON,VA,23666-0000,(757) 637-4861
1726,171 BURGESS ROAD,HARRISONBURG,VA,22801-0000,(540) 433-0808
2807,2160 JOHN WAYLAND HWY,HARRISONBURG,VA,22801-4509,(540) 438-0349
3077,6530 TRADING SQ,HAYMARKET,VA,20169-2278,(703) 468-2445
7032,5001 NINE MILE RD,HENRICO,VA,23223-5732,(804) 253-1528
3772,468 TRADE CENTER LN,JONESVILLE,VA,24263-7463,(276) 346-2860
4350,200 OLD FAIRGROUNDS WAY,KILMARNOCK,VA,22482-3871,(804) 435-6148
5779,16375 MERCHANT LN,KING GEORGE,VA,22485-5655,(540) 413-3037
3480,1050 REGIONAL PARK RD,LEBANON,VA,24266-3712,(276) 889-1654
1904,19360 COMPASS CREEK PKWY,LEESBURG,VA,20175-5445,(703) 779-0102
1335,1233 N LEE HWY,LEXINGTON,VA,24450-3307,(540) 464-3535
5731,2533 GERMANNA HWY,LOCUST GROVE,VA,22508-0000,(540) 317-2185
2564,1036 US HIGHWAY 211 W,LURAY,VA,22835-5245,(540) 743-4111
1350,3900 WARDS RD,LYNCHBURG,VA,24502-2942,(434) 832-0304
3605,22088 TIMBERLAKE RD,LYNCHBURG,VA,24502-0000,(434) 439-3142
4697,3227 OLD FOREST RD,LYNCHBURG,VA,24501-2325,(434) 200-9132
2565,197 MADISON HEIGHTS SQ,MADISON HEIGHTS,VA,24572-6243,(434) 846-9650
1825,8386 SUDLEY RD,MANASSAS,VA,20109-3428,(703) 330-5253
3573,9401 LIBERIA AVE,MANASSAS,VA,20110-1718,(703) 257-0403
1336,1193 N MAIN ST,MARION,VA,24354-4121,(276) 783-4244
1243,976 COMMONWEALTH BLVD,MARTINSVILLE,VA,24112-1887,(276) 634-5110
1525,7430 BELL CREEK RD,MECHANICSVILLE,VA,23111-3550,(804) 730-8877
1969,900 WALMART WAY,MIDLOTHIAN,VA,23113-2600,(804) 378-9001
2808,12200 CHATTANOOGA PLZ,MIDLOTHIAN,VA,23112-4865,(804) 744-8437
1773,12401 JEFFERSON AVE,NEWPORT NEWS,VA,23602-4311,(757) 874-4434
3157,11214 JEFFERSON AVE,NEWPORT NEWS,VA,23601-2207,(757) 327-7473
4623,6111 JEFFERSON AVE,NEWPORT NEWS,VA,23605-1511,(757) 637-4205
1811,1170 N MILITARY HWY,NORFOLK,VA,23502-2425,(757) 461-6330
5488,7530 TIDEWATER DR,NORFOLK,VA,23505-3703,(757) 480-0587
5755,1720 E LITTLE CREEK RD,NORFOLK,VA,23518-4202,(757) 480-0654
6798,3350 E PRINCESS ANNE ROAD,NORFOLK,VA,23502-0000,(757) 216-0632
7174,5700 HOPKINS RD,NORTH CHESTERFIELD,VA,23234-6631,(804) 253-0445
1302,780 COMMONWEALTH DR,NORTON,VA,24273-4051,(276) 679-7327
4378,26036 LANKFORD HWY,ONLEY,VA,23418-3005,(757) 302-4089
2646,160 KINTER WAY,PEARISBURG,VA,24134-2218,(540) 921-1204
2160,3500 S CRATER RD,PETERSBURG,VA,23805-9204,(804) 957-6444
3831,1098 FREDERICK BLVD,PORTSMOUTH,VA,23707-4119,(757) 399-1795
2761,13320 G.C. PEERY HWY,POUNDING MILL,VA,24637-4207,(276) 596-9706
5847,TBD,POWHATAN,VA,23139-0000,(804) 464-9887
2295,7901 BROOK RD,RICHMOND,VA,23227-1336,(804) 553-8432
2821,2410 SHEILA LN,RICHMOND,VA,23225-2041,(804) 320-6991
3869,1504 N PARHAM RD,RICHMOND,VA,23229-4621,(804) 270-6034
4191,6920 FOREST AVE,RICHMOND,VA,23230-1701,(804) 774-2236
1301,5350 CLEARBROOK VILLAGE LN,ROANOKE,VA,24014-6606,(540) 772-3892
2312,4807 VALLEY VIEW BLVD NW,ROANOKE,VA,24012-2018,(540) 265-5600
3243,4524 CHALLENGER AVE,ROANOKE,VA,24012-7028,(540) 977-3745
3614,2141 DALE AVE,ROANOKE,VA,24013-0000,(540) 613-6644
3622,4950 PLANTATION RD,ROANOKE,VA,24019-5216,(540) 283-5101
7177,1942 PORT REPUBLIC RD,ROCKINGHAM,VA,22801-3532,(540) 282-6951
2337,550 OLD FRANKLIN TPKE,ROCKY MOUNT,VA,24151-5504,(540) 484-1002
4638,135 STONERIDGE DR,RUCKERSVILLE,VA,22968-3088,(434) 990-6013
1309,1851 W MAIN ST,SALEM,VA,24153-3111,(540) 375-2919
1345,3471 OLD HALIFAX RD,SOUTH BOSTON,VA,24592-4936,(434) 575-0680
1934,315 FURR ST,SOUTH HILL,VA,23970-9500,(434) 447-3610
2438,217 GARRISONVILLE RD,STAFFORD,VA,22554-1527,(540) 720-0059
6936,14 N STAFFORD COMPLEX CTR,STAFFORD,VA,22556-1901,(540) 602-6125
1344,1028 RICHMOND AVE,STAUNTON,VA,24401-4901,(540) 886-8566
2038,45415 DULLES CROSSING PLZ,STERLING,VA,20166-8921,(571) 434-9434
3770,19154 JEB STUART HIGHWAY,STUART,VA,24171-0000,(276) 694-2520
1687,1200 N MAIN ST,SUFFOLK,VA,23434-4321,(757) 925-0224
3214,6259 COLLEGE DR,SUFFOLK,VA,23435-2610,(757) 483-8860
1730,1660 TAPPAHANNOCK BLVD,TAPPAHANNOCK,VA,22560-9320,(804) 443-1188
6952,375 S MAIN ST,TIMBERVILLE,VA,22853-9522,(540) 896-0212
5936,1500 B CORNERSIDE BLVD,VIENNA,VA,22182-2433,(571) 623-3300
1688,657 PHOENIX DR,VIRGINIA BEACH,VA,23452-7318,(757) 498-9633
2529,2021 LYNNHAVEN PKWY,VIRGINIA BEACH,VA,23456-1410,(757) 416-3480
3216,1149 NIMMO PKWY,VIRGINIA BEACH,VA,23456-7730,(757) 430-1836
4064,4821 VIRGINIA BEACH BLVD,VIRGINIA BEACH,VA,23462-6710,(757) 278-2004
4220,3201 HOLLAND RD,VIRGINIA BEACH,VA,23453-2828,(757) 821-7674
5922,546 FIRST COLONIAL RD,VIRGINIA BEACH,VA,23451-6120,(757) 364-7616
6226,1832 KEMPSVILLE ROAD,VIRGINIA BEACH,VA,23464-0000,(757) 278-2566
2437,700 JAMES MADISON HWY,WARRENTON,VA,20186-3828,(540) 341-3568
4388,1211 W BROAD ST STE A,WAYNESBORO,VA,22980-4326,(540) 943-4087
5117,116 LUCY LN,WAYNESBORO,VA,22980-3275,(540) 932-2500
3219,731 E ROCHAMBEAU DR,WILLIAMSBURG,VA,23188-2187,(757) 220-2772
5754,4670 CASEY BLVD,WILLIAMSBURG,VA,23188-2879,(757) 603-4600
1406,2350 S PLEASANT VALLEY RD,WINCHESTER,VA,22601-7006,(540) 667-9111
3344,501 WAL MART DR,WINCHESTER,VA,22603-3937,(540) 545-8730
4514,201 MARANTO MANOR DR,WINCHESTER,VA,22602-4807,(540) 868-5076
1852,14000 WORTH AVE,WOODBRIDGE,VA,22192-4121,(703) 497-2590
2647,461 W RESERVOIR RD,WOODSTOCK,VA,22664-2005,(540) 459-9229
3270,345 COMMONWEALTH DR,WYTHEVILLE,VA,24382-1169,(276) 228-2190
3265,2601 GEORGE WASHINGTON MEMORIAL HWY,YORKTOWN,VA,23693-3409,(757) 867-8004
2289,210 NORTHSIDE DR,BENNINGTON,VT,05201-1723,(802) 447-1614
2682,282 BERLIN MALL RD,BERLIN,VT,05602-8292,(802) 229-7792
4156,115 SEYMOUR DRIVE,DERBY,VT,05829-0000,(802) 624-8012
2530,90 SHOPPING PLAZA RD,RUTLAND,VT,05701-5204,(802) 773-0200
2332,700 TUCKERS WAY,ST. ALBANS,VT,05478-2628,(802) 528-4110
2224,863 HARVEST LN,WILLISTON,VT,05495-7319,(802) 878-5233
2037,909 E WISHKAH ST,ABERDEEN,WA,98520-2901,(360) 532-7595
3757,4010 172ND ST NE,ARLINGTON,WA,98223-8482,(360) 386-4608
2385,762 OUTLET COLLECTION WAY,AUBURN,WA,98001-6582,(253) 735-1855
5929,1201 SW 13TH AVENUE,BATTLE GROUND,WA,98604-2800,(360) 723-9004
3098,15063 MAIN ST,BELLEVUE,WA,98007-5225,(425) 643-9054
2450,4420 MERIDIAN ST,BELLINGHAM,WA,98226-8087,(360) 647-1400
5041,19205 STATE ROUTE 410 E,BONNEY LAKE,WA,98391-6305,(253) 826-9144
2317,6797 STATE HIGHWAY 303 NE,BREMERTON,WA,98311-3736,(360) 698-2889
2249,1601 NW LOUISIANA AVE,CHEHALIS,WA,98532-1700,(360) 748-1240
3754,108 APPLE BLOSSOM DR,CHELAN,WA,98816-8679,(509) 682-4291
2006,306 5TH ST,CLARKSTON,WA,99403-1860,(509) 758-8532
2476,1700 SE MEADOWBROOK BLVD,COLLEGE PLACE,WA,99324-1798,(509) 525-3468
2016,810 NORTH HIGHWAY,COLVILLE,WA,99114-2028,(509) 684-3209
5073,17432 SE 270TH PL,COVINGTON,WA,98042-4962,(253) 630-7791
3260,1399 NAT WASHINGTON WAY,EPHRATA,WA,98823-2629,(509) 754-8837
3053,1605 SE EVERETT MALL WAY,EVERETT,WA,98208-2838,(425) 789-3361
2571,1900 S 314TH ST,FEDERAL WAY,WA,98003-5622,(253) 941-9974
3794,34520 16TH AVENUE AOUTH,FEDERAL WAY,WA,98003-0000,(253) 835-4965
2101,2720 S QUILLAN ST,KENNEWICK,WA,99337-2404,(509) 586-1554
3531,1401 GALAXY DR NE,LACEY,WA,98516-4746,(360) 456-6550
4757,5110 YELM HIGHWAY,LACEY,WA,98503-0000,(360) 252-2906
3537,7001 BRIDGEPORT WAY W,LAKEWOOD,WA,98499-8099,(253) 512-0949
2469,540 7TH AVE,LONGVIEW,WA,98632-1605,(360) 414-9656
5853,3715 OCEAN BEACH HWY,LONGVIEW,WA,98632-4801,(360) 355-3016
2594,1400 164TH ST SW,LYNNWOOD,WA,98087-8515,(425) 741-9445
5678,17222 HIGHWAY 99,LYNNWOOD,WA,98037-3170,(425) 245-0795
2595,8924 QUILCEDA BLVD,MARYSVILLE,WA,98271-8076,(360) 657-1192
3801,8713 64TH ST NE,MARYSVILLE,WA,98270-7704,(360) 386-3004
5628,19191 N KELSEY ST,MONROE,WA,98272-1459,(360) 365-4033
2007,1005 N STRATFORD RD,MOSES LAKE,WA,98837-1574,(509) 765-8979
2596,2301 FREEWAY DR,MOUNT VERNON,WA,98273-5445,(360) 428-7000
2319,1250 SW ERIE ST,OAK HARBOR,WA,98277-3103,(360) 279-0665
1947,PO BOX 3606,OMAK,WA,98841-3606,(509) 826-6002
3217,1860 E MAIN ST,OTHELLO,WA,99344-1578,(509) 488-9295
3380,4820 N ROAD 68,PASCO,WA,99301-9009,(509) 543-7934
2196,3411 E KOLONELS WAY,PORT ANGELES,WA,98362-9089,(360) 452-1244
2325,3497 BETHEL RD SE,PORT ORCHARD,WA,98366-5634,(360) 874-9060
5272,21200 OLHAVA WAY NW,POULSBO,WA,98370-9457,(360) 697-3670
1870,1690 SE HARVEST DR,PULLMAN,WA,99163-6000,(509) 334-2990
2403,310 31ST AVE SE,PUYALLUP,WA,98374-1232,(253) 770-4399
3525,16502 MERIDIAN E,PUYALLUP,WA,98375-2515,(253) 446-1741
2516,743 RAINIER AVENUE SOUTH,RENTON,WA,98057-3204,(425) 227-0407
3261,2801 DUPORTAIL ST,RICHLAND,WA,99352-9107,(509) 628-8420
5273,1110 W WASHINGTON ST,SEQUIM,WA,98382-3270,(360) 683-9346
2121,100 E WALLACE KNEELAND BLVD,SHELTON,WA,98584-2981,(360) 427-6226
3218,20307 MOUNTAIN HWY E,SPANAWAY,WA,98387-8101,(253) 846-6008
2549,9212 N COLTON ST,SPOKANE,WA,99218-1284,(509) 464-2173
2865,2301 W WELLESLEY AVE,SPOKANE,WA,99205-5004,(509) 327-0404
4394,1221 S HAYFORD RD,SPOKANE,WA,99224-7023,(509) 459-0602
2539,15727 E BROADWAY AVE,SPOKANE VALLEY,WA,99037-9544,(509) 922-8868
5883,5025 E SPRAGUE AVE,SPOKANE VALLEY,WA,99212-0814,(509) 795-3491
2241,2675 E LINCOLN AVE,SUNNYSIDE,WA,98944-2485,(509) 839-7339
4137,1965 S. UNION AVE,TACOMA,WA,98405-1017,(253) 414-9526
3850,5900 LITTLEROCK RD SW,TUMWATER,WA,98512-7355,(360) 350-6019
2550,221E NE 104TH AVE,VANCOUVER,WA,98664-4505,(360) 885-0734
2947,9000 NE HIGHWAY 99,VANCOUVER,WA,98665-8923,(360) 571-0300
3145,2201 GRAND BLVD,VANCOUVER,WA,98661-0000,(360) 258-2015
5461,14505 NE FOURTH PLAIN BLVD,VANCOUVER,WA,98682-5003,(360) 258-2654
5462,430 SE 192ND AVE,VANCOUVER,WA,98683-9531,(360) 256-0109
2187,2000 N WENATCHEE AVE,WENATCHEE,WA,98801-1056,(509) 664-2448
3742,1486 DIKE ACCESS RD,WOODLAND,WA,98674-9359,(360) 841-9131
2269,1600 E CHESTNUT AVE,YAKIMA,WA,98901-2174,(509) 248-3448
5078,6600 W NOB HILL BLVD,YAKIMA,WA,98908-1976,(509) 966-0478
3705,17100 STATE ROUTE 507 SE,YELM,WA,98597-7605,(360) 400-8050
3268,200 E STATE HIGHWAY 64,ANTIGO,WI,54409-2967,(715) 627-1382
1982,955 MUTUAL WAY,APPLETON,WI,54913-8415,(920) 954-6300
2958,3701 E CALUMET ST,APPLETON,WI,54915-4149,(920) 996-0573
1672,2500 LAKE SHORE DR E,ASHLAND,WI,54806-2421,(715) 682-9699
1396,920 STATE ROAD 136,BARABOO,WI,53913-9254,(608) 356-1765
1012,120 FRANCES LN,BEAVER DAM,WI,53916-1165,(920) 887-8900
2532,2785 MILWAUKEE RD,BELOIT,WI,53511-6915,(608) 362-0057
1727,861 COUNTY ROAD F,BERLIN,WI,54923-1300,(920) 361-1600
1277,611 STATE HIGHWAY 54,BLACK RIVER FALLS,WI,54615-5453,(715) 284-2434
6394,6300 W BROWN DEER RD,BROWN DEER,WI,53223-2233,(414) 410-2548
3488,1901 MILWAUKEE AVE,BURLINGTON,WI,53105-9799,(262) 767-9520
2509,810 S IRISH RD,CHILTON,WI,53014-1773,(920) 849-9551
5373,2786 COMMERCIAL BLVD,CHIPPEWA FALLS,WI,54729-5031,(715) 738-2254
5090,1415 LAWRENCE DR,DE PERE,WI,54115-3927,(920) 336-3416
1678,2863 HERITAGE DR,DELAFIELD,WI,53018-2128,(262) 646-8858
3247,1819 E GENEVA ST,DELAVAN,WI,53115-2037,(262) 740-1815
847,601 E LEFFLER ST,DODGEVILLE,WI,53533-2123,(608) 935-2723
1669,3915 GATEWAY DR,EAU CLAIRE,WI,54701-8165,(715) 834-0733
1643,377 N ROLLING MEADOWS DR,FOND DU LAC,WI,54937-9726,(920) 921-6311
1551,6701 S 27TH ST,FRANKLIN,WI,53132-9430,(414) 761-9560
1515,W190N9855 APPLETON AVE,GERMANTOWN,WI,53022-4504,(262) 255-1285
1453,2440 W MASON ST,GREEN BAY,WI,54303-4711,(920) 499-9897
1908,2292 MAIN ST,GREEN BAY,WI,54311-5307,(920) 465-1333
5668,5301 S 76TH ST,GREENDALE,WI,53129-1128,(414) 978-9016
1394,10600 W LAYTON AVE,GREENFIELD,WI,53228-3258,(414) 529-0455
5463,1220 THEIL ST,HARTFORD,WI,53027-1448,(262) 670-5803
3245,15594 STATE HIGHWAY 77,HAYWARD,WI,54843-6467,(715) 634-8228
1365,2222 CREST VIEW DR,HUDSON,WI,54016-9487,(715) 386-1101
1305,3800 DEERFIELD DR,JANESVILLE,WI,53546-4448,(608) 754-7800
3499,1520 S MAIN ST,JEFFERSON,WI,53549-2940,(920) 674-2258
1167,3500 BRUMBACK BLVD,KENOSHA,WI,53144-4816,(262) 652-1039
5127,4622 MORMON COULEE RD,LA CROSSE,WI,54601-8224,(608) 788-1870
4281,800 W 10TH ST S,LADYSMITH,WI,54848-6301,(715) 532-2039
910,201 S EDWARDS BLVD,LAKE GENEVA,WI,53147-4507,(262) 248-2266
1138,7202 WATTS RD,MADISON,WI,53719-2302,(608) 276-9393
2335,4198 NAKOOSA TRL,MADISON,WI,53714-1362,(608) 241-8808
1449,4115 CALUMET AVE,MANITOWOC,WI,54220-5400,(920) 684-4214
2545,2900 ROOSEVELT RD,MARINETTE,WI,54143-3832,(715) 735-5117
2813,2001 N CENTRAL AVE,MARSHFIELD,WI,54449-8337,(715) 486-9440
3643,1010 N 8TH ST,MEDFORD,WI,54451-1278,(715) 748-9000
1819,180 CEDAR FALLS RD,MENOMONIE,WI,54751-1268,(715) 235-6565
1366,505 S PINE RIDGE AVENUE,MERRILL,WI,54452-8812,(715) 536-2414
2452,401 E CAPITOL DR,MILWAUKEE,WI,53212-1211,(414) 967-7804
2828,3355 S 27TH ST,MILWAUKEE,WI,53215-4303,(414) 383-1113
5697,7025 W MAIN ST,MILWAUKEE,WI,53214-0000,(414) 203-0392
2510,8760 NORTHRIDGE WAY,MINOCQUA,WI,54548-8766,(715) 356-1609
3857,2151 ROYAL AVE,MONONA,WI,53713-4812,(608) 226-0913
802,300 6TH AVE WEST,MONROE,WI,53566-1342,(608) 325-7701
5695,5625 WASHINGTON AVE,MOUNT PLEASANT,WI,53406-4015,(262) 504-2048
1571,250 WOLF RUN,MUKWONAGO,WI,53149-8470,(262) 363-7500
4677,W159S6530 MOORLAND RD,MUSKEGO,WI,53150-7515,(414) 209-0317
2986,1155 W WINNECONNE AVE,NEENAH,WI,54956-3693,(920) 722-0782
5438,15205 W GREENFIELD AVE,NEW BERLIN,WI,53151-1519,(262) 796-1620
1471,1717 N SHAWANO ST,NEW LONDON,WI,54961-9365,(920) 982-7525
5432,250 RICHMOND WAY,NEW RICHMOND,WI,54017-6829,(715) 246-5509
1679,3107 MARKET PL,ONALASKA,WI,54650-6756,(608) 781-8282
1430,351 S WASHBURN ST,OSHKOSH,WI,54904-7932,(920) 231-1575
3322,411 PEWAUKEE RD,PEWAUKEE,WI,53072-5886,(262) 695-1847
958,1800 PROGRESSIVE PKWY,PLATTEVILLE,WI,53818-3813,(608) 348-4888
1828,250 CROSSROADS DR,PLOVER,WI,54467-4124,(715) 345-7855
3497,428 WALTON DR,PLYMOUTH,WI,53073-5019,(920) 892-7523
1799,2950 NEW PINERY RD,PORTAGE,WI,53901-9225,(608) 742-1432
882,38020 US HIGHWAY 18,PRAIRIE DU CHIEN,WI,53821-8206,(608) 326-2408
1931,2121 LINCOLN ST,RHINELANDER,WI,54501-3678,(715) 362-8550
1446,2501 WEST AVE,RICE LAKE,WI,54868-6000,(715) 234-6990
1007,2401 US HWY 14 E,RICHLAND CENTER,WI,53581-2996,(608) 647-7141
2421,2212 GLACIER DR,SAINT CROIX FALLS,WI,54024-8347,(715) 483-1399
1650,825 E GREEN BAY AVE,SAUKVILLE,WI,53080-2618,(262) 284-9616
2271,1244 EAST GREEN BAY,SHAWANO,WI,54166-2208,(715) 524-5980
1276,3711 S TAYLOR DR,SHEBOYGAN,WI,53081-8495,(920) 459-9300
3324,4433 VANGUARD DR,SHEBOYGAN,WI,53083-6067,(920) 459-9410
5667,222 N CHICAGO AVE,SOUTH MILWAUKEE,WI,53172-1241,(414) 501-1121
979,1600 W WISCONSIN ST,SPARTA,WI,54656-2242,(608) 269-7501
1176,2600 STATE HIGHWAY 138,STOUGHTON,WI,53589-3701,(608) 873-5453
1316,1536 EGG HARBOR RD,STURGEON BAY,WI,54235-0000,(920) 746-0402
2668,3049 OAKES RD,STURTEVANT,WI,53177-1661,(262) 598-8702
1267,1905 MCCOY RD,SUN PRAIRIE,WI,53590-2529,(608) 837-6339
1447,3705 TOWER AVE,SUPERIOR,WI,54880-5338,(715) 392-6060
965,222 W MCCOY BLVD,TOMAH,WI,54660-3291,(608) 372-7900
971,1133 N MAIN ST,VIROQUA,WI,54665-1162,(608) 637-8511
1776,1901 MARKET WAY,WATERTOWN,WI,53094-7427,(920) 261-7270
1635,2000 S WEST AVE,WAUKESHA,WI,53189-7516,(262) 521-1815
2127,226100 RIB MOUNTAIN DR,WAUSAU,WI,54401-6604,(715) 359-2282
2658,1515 W PARADISE DR,WEST BEND,WI,53095-9794,(262) 334-5760
5669,4140 W GREENFIELD AVE,WEST MILWAUKEE,WI,53215-1334,(414) 978-2004
1274,1362 W MAIN ST,WHITEWATER,WI,53190-1504,(262) 473-7744
3505,130 COMMERCE ST,WISCONSIN DELLS,WI,53965-8263,(608) 253-3490
1202,4331 8TH ST S,WISCONSIN RAPIDS,WI,54494-7833,(715) 423-1900
5296,25 NICHOLS DR,BARBOURSVILLE,WV,25504-1813,(304) 733-0789
1351,1330 N EISENHOWER DR,BECKLEY,WV,25801-3156,(304) 255-7800
2809,100 BUCKHANNON CROSSROADS,BUCKHANNON,WV,26201-8422,(304) 472-2589
2566,96 PATRICK HENRY WAY,CHARLES TOWN,WV,25414-4391,(304) 728-2720
1544,550 EMILY DR,CLARKSBURG,WV,26301-5508,(304) 622-1954
2576,100 NITRO MARKET PL,CROSS LANES,WV,25313-4401,(304) 769-0100
1522,40 JETT LN,ELKINS,WV,26241-5544,(304) 636-2138
1714,32 TYGART MALL LOOP,FAIRMONT,WV,26554-2187,(304) 366-0444
1360,204 TOWN CENTER RD,FAYETTEVILLE,WV,25840-9540,(304) 574-1086
2833,1 WALMART LN,GRAFTON,WV,26354-9537,(304) 265-6294
2244,3333 US ROUTE 60,HUNTINGTON,WV,25705-2838,(304) 525-8889
4277,167 PROGRESS WAY,HURRICANE,WV,25526-7450,(304) 562-0475
2474,RR 4 BOX 82,KEYSER,WV,26726-9406,(304) 788-8160
4372,100 WALMART DR,KINGWOOD,WV,26537-1143,(304) 329-4020
1499,1976 JEFFERSON ST N,LEWISBURG,WV,24901-2209,(304) 645-5280
2610,77 NORMAN MORGAN BLVD,LOGAN,WV,25601-3477,(304) 752-7391
5319,1881 ROBERT C BYRD DR,MACARTHUR,WV,25873-0000,(304) 256-6480
1703,800 FOXCROFT AVE,MARTINSBURG,WV,25401-1829,(304) 263-6061
4423,5680 HAMMONDS MILL RD,MARTINSBURG,WV,25404-6421,(304) 274-5176
2849,320 MALLARD LANE,MASON,WV,25260-1249,(304) 773-9125
2696,11 HARNESS RD,MOOREFIELD,WV,26836-8600,(304) 538-3490
2083,75 RETAIL CIRCLE,MORGANTOWN,WV,26508-2528,(304) 292-4786
3215,5605 UNIV TOWN CENTRE DR,MORGANTOWN,WV,26501-2473,(304) 598-3239
2852,10 WALMART DR,MOUNDSVILLE,WV,26041-1187,(304) 843-1580
2684,1142 S BRIDGE ST,NEW MARTINSVILLE,WV,26155-1508,(304) 455-6522
2823,2900 PIKE ST,PARKERSBURG,WV,26101-8653,(304) 489-1905
2933,201 GREASY RIDGE RD,PRINCETON,WV,24739-6900,(304) 431-2100
4278,1001 WARRIOR WAY,QUINCY,WV,25015-1300,(304) 220-3001
1450,200 ACADEMY DR,RIPLEY,WV,25271-1157,(304) 372-4482
2036,2700 MOUNTAINEER BLVD,SOUTH CHARLESTON,WV,25309-9442,(304) 746-1720
2810,97 WILLIAMS DR,SPENCER,WV,25276-1825,(304) 927-6920
1477,200 WAL ST,SUMMERSVILLE,WV,26651-2100,(304) 872-6734
6951,369 SCOTT FRK,SUTTON,WV,26601-9229,(304) 689-3004
5088,450 STEWART LN,TRIADELPHIA,WV,26059-1020,(304) 547-1726
1782,701 GRAND CENTRAL AVE,VIENNA,WV,26105-2143,(304) 422-3522
2792,100 MCGINNIS DR,WAYNE,WV,25570-9691,(304) 272-3633
1948,400 THREE SPRINGS DR,WEIRTON,WV,26062-4950,(304) 723-3445
1653,110 BERLIN RD,WESTON,WV,26452-8366,(304) 269-1549
1617,4400 E 2ND ST,CASPER,WY,82609-4221,(307) 237-0991
3778,4255 CY AVE,CASPER,WY,82604-4247,(307) 232-9593
1315,2032 DELL RANGE BLVD,CHEYENNE,WY,82009-4956,(307) 632-4330
4653,NEC OF COLLEGE & I-8,CHEYENNE,WY,82007-0000,(307) 823-6810
1778,321 YELLOWSTONE AVE,CODY,WY,82414-9315,(307) 527-4673
1456,125 N 2ND ST,EVANSTON,WY,82930-3672,(307) 789-0010
1485,2300 S DOUGLAS HWY,GILLETTE,WY,82718-5420,(307) 686-4060
1412,4308 E GRAND AVE,LARAMIE,WY,82070-5508,(307) 745-6100
4471,2390 E CEDAR ST,RAWLINS,WY,82301-6026,(307) 417-3001
1457,1733 N FEDERAL BLVD,RIVERTON,WY,82501-5201,(307) 856-3261
1461,201 GATEWAY BLVD,ROCK SPRINGS,WY,82901-5782,(307) 362-1957
1508,1695 COFFEEN AVE,SHERIDAN,WY,82801-5761,(307) 674-6492